{
"type": "FeatureCollection",
"name": "AccessPoints",
"crs": { "type": "name", "properties": { "name": "urn:ogc:def:crs:OGC:1.3:CRS84" } },
"features": [
{"type":"Feature","properties":{"OBJECTID":1,"Name":"BREAK THROUGH CATERING SERVICE","access_id":1,"building_i":57},"geometry":{"type":"Point","coordinates":[3.82101674300003,7.239386572000058]}},
{"type":"Feature","properties":{"OBJECTID":2,"Name":"CHOWSPACE","access_id":2,"building_i":61},"geometry":{"type":"Point","coordinates":[3.82102732200002,7.23941932300005]}},
{"type":"Feature","properties":{"OBJECTID":3,"Name":"RAHMAN SHOP","access_id":3,"building_i":59},"geometry":{"type":"Point","coordinates":[3.820970964000026,7.239434866000067]}},
{"type":"Feature","properties":{"OBJECTID":4,"Name":"FODEC VENTURES","access_id":4,"building_i":63},"geometry":{"type":"Point","coordinates":[3.821087184000021,7.239455743000065]}},
{"type":"Feature","properties":{"OBJECTID":5,"Name":"OLUWA SEUN BEAUTY SALOON","access_id":5,"building_i":68},"geometry":{"type":"Point","coordinates":[3.821151515000054,7.239470348000054]}},
{"type":"Feature","properties":{"OBJECTID":6,"Name":"AYOMIDE ENTERPRISE","access_id":6,"building_i":66},"geometry":{"type":"Point","coordinates":[3.821074305000025,7.239536313000031]}},
{"type":"Feature","properties":{"OBJECTID":7,"Name":"PWESH LAUNDRY SERVICES","access_id":7,"building_i":65},"geometry":{"type":"Point","coordinates":[3.821047902000032,7.239543017000074]}},
{"type":"Feature","properties":{"OBJECTID":8,"Name":"SUCCESS BJ ENTERPRISE","access_id":8,"building_i":64},"geometry":{"type":"Point","coordinates":[3.82099271800007,7.239555902000063]}},
{"type":"Feature","properties":{"OBJECTID":9,"Name":"ELSALEM BLOCK B","access_id":9,"building_i":37},"geometry":{"type":"Point","coordinates":[3.821201256000052,7.239544207000051]}},
{"type":"Feature","properties":{"OBJECTID":10,"Name":"FEMALE UNIVERSITY HOSTEL","access_id":10,"building_i":44},"geometry":{"type":"Point","coordinates":[3.820556663000048,7.239512525000066]}},
{"type":"Feature","properties":{"OBJECTID":11,"Name":"MALE UNIVERSITY HOSTEL","access_id":11,"building_i":45},"geometry":{"type":"Point","coordinates":[3.820703598000023,7.239892307000048]}},
{"type":"Feature","properties":{"OBJECTID":12,"Name":"ELSALEM BLOCK A","access_id":12,"building_i":46},"geometry":{"type":"Point","coordinates":[3.820717620000039,7.240137021000066]}},
{"type":"Feature","properties":{"OBJECTID":16,"Name":"ELSALEM BLOCK C","access_id":13,"building_i":38},"geometry":{"type":"Point","coordinates":[3.821611291000067,7.239717708000057]}},
{"type":"Feature","properties":{"OBJECTID":17,"Name":"ELSALEM BLOCK B","access_id":14,"building_i":37},"geometry":{"type":"Point","coordinates":[3.821397921000028,7.239757877000045]}},
{"type":"Feature","properties":{"OBJECTID":18,"Name":"UNIVERSITY HEALTH CENTER","access_id":15,"building_i":42},"geometry":{"type":"Point","coordinates":[3.821805894000022,7.23824989600007]}},
{"type":"Feature","properties":{"OBJECTID":19,"Name":"ELSALEM BLOCK C","access_id":16,"building_i":38},"geometry":{"type":"Point","coordinates":[3.821489965000069,7.239477950000037]}},
{"type":"Feature","properties":{"OBJECTID":20,"Name":"ELSALEM BLOCK B","access_id":17,"building_i":37},"geometry":{"type":"Point","coordinates":[3.821330204000049,7.239524705000065]}},
{"type":"Feature","properties":{"OBJECTID":21,"Name":"ELSALEM BLOCK D","access_id":18,"building_i":39},"geometry":{"type":"Point","coordinates":[3.821308161000047,7.239449309000065]}},
{"type":"Feature","properties":{"OBJECTID":22,"Name":"ELSALEM BLOCK D","access_id":19,"building_i":39},"geometry":{"type":"Point","coordinates":[3.821237613000051,7.239200105000066]}},
{"type":"Feature","properties":{"OBJECTID":23,"Name":"ELSALEM BLOCK F","access_id":20,"building_i":41},"geometry":{"type":"Point","coordinates":[3.821404379000057,7.23910457900007]}},
{"type":"Feature","properties":{"OBJECTID":24,"Name":"ELSALEM BLOCK E","access_id":21,"building_i":40},"geometry":{"type":"Point","coordinates":[3.821217896000064,7.239135582000074]}},
{"type":"Feature","properties":{"OBJECTID":25,"Name":"FACULTY OF NATURAL AND APPLIED SCIENCE","access_id":22,"building_i":36},"geometry":{"type":"Point","coordinates":[3.822856282000032,7.23963653900006]}},
{"type":"Feature","properties":{"OBJECTID":26,"Name":"FACULTY OF NATURAL AND APPLIED SCIENCE","access_id":23,"building_i":36},"geometry":{"type":"Point","coordinates":[3.822693582000056,7.239596921000043]}},
{"type":"Feature","properties":{"OBJECTID":27,"Name":"FACULTY OF ENGINEERING","access_id":24,"building_i":34},"geometry":{"type":"Point","coordinates":[3.823319662000074,7.238728882000032]}},
{"type":"Feature","properties":{"OBJECTID":28,"Name":"LABORATORY AND WORKSHOP BUILDING","access_id":25,"building_i":33},"geometry":{"type":"Point","coordinates":[3.823441958000046,7.239608496000074]}},
{"type":"Feature","properties":{"OBJECTID":29,"Name":"BIOLOGICAL SCIENCE","access_id":26,"building_i":31},"geometry":{"type":"Point","coordinates":[3.82323933400005,7.239940723000075]}},
{"type":"Feature","properties":{"OBJECTID":30,"Name":"NEW ACADEMIC BUILDING","access_id":27,"building_i":27},"geometry":{"type":"Point","coordinates":[3.82363284500002,7.240309140000022]}},
{"type":"Feature","properties":{"OBJECTID":31,"Name":"NEW ACADEMIC BUILDING","access_id":28,"building_i":27},"geometry":{"type":"Point","coordinates":[3.823656585000037,7.240412186000071]}},
{"type":"Feature","properties":{"OBJECTID":32,"Name":"REGISTRY DEPARTMENT","access_id":29,"building_i":2},"geometry":{"type":"Point","coordinates":[3.825733692000028,7.23982542400006]}},
{"type":"Feature","properties":{"OBJECTID":33,"Name":"ADMINISTRATIVE BUILDING","access_id":30,"building_i":1},"geometry":{"type":"Point","coordinates":[3.826070103000063,7.239977092000061]}},
{"type":"Feature","properties":{"OBJECTID":34,"Name":"FACULTY OF ENVIRONMENTAL SCIENCE AND MANAGEMENT","access_id":31,"building_i":11},"geometry":{"type":"Point","coordinates":[3.826742284000034,7.24047786400007]}},
{"type":"Feature","properties":{"OBJECTID":35,"Name":"FACULTY OF ENVIRONMENTAL SCIENCE AND MANAGEMENT","access_id":32,"building_i":11},"geometry":{"type":"Point","coordinates":[3.826601338000046,7.240331101000038]}},
{"type":"Feature","properties":{"OBJECTID":37,"Name":"OFFICE COMPLEX","access_id":34,"building_i":26},"geometry":{"type":"Point","coordinates":[3.82485241400002,7.241273054000033]}},
{"type":"Feature","properties":{"OBJECTID":38,"Name":"AJALA VILLAGE","access_id":35,"building_i":0},"geometry":{"type":"Point","coordinates":[3.825773733000062,7.241280005000021]}},
{"type":"Feature","properties":{"OBJECTID":39,"Name":"BLOOM EATRY","access_id":36,"building_i":16},"geometry":{"type":"Point","coordinates":[3.827965544000051,7.240689]}},
{"type":"Feature","properties":{"OBJECTID":40,"Name":"LECTURE THEATRE A","access_id":37,"building_i":18},"geometry":{"type":"Point","coordinates":[3.828113103000021,7.240801486000066]}},
{"type":"Feature","properties":{"OBJECTID":41,"Name":"LECTURE THEATRE B","access_id":38,"building_i":22},"geometry":{"type":"Point","coordinates":[3.828254116000039,7.240959388000022]}},
{"type":"Feature","properties":{"OBJECTID":42,"Name":"MOJOLA OLUWA VENTURE","access_id":39,"building_i":25},"geometry":{"type":"Point","coordinates":[3.828461913000069,7.241209357000059]}},
{"type":"Feature","properties":{"OBJECTID":36,"Name":"SECURITY POST","access_id":33,"building_i":56},"geometry":{"type":"Point","coordinates":[3.826769606730299,7.240838060784784]}},
{"type":"Feature","properties":{"OBJECTID":0,"Name":"NEW FEMALE  HOSTEL","access_id":0,"building_i":43},"geometry":{"type":"Point","coordinates":[3.820487735315863,7.239070398627818]}}
]
}
