{
"type": "FeatureCollection",
"name": "CampusNetwork",
"crs": { "type": "name", "properties": { "name": "urn:ogc:def:crs:OGC:1.3:CRS84" } },
"features": [
{"type":"Feature","properties":{"OBJECTID":1.0,"SHAPE_Leng":143.81440557,"walk":1.0,"drive":0.0,"Shape_Le_1":143.81440557},"geometry":{"type":"MultiLineString","coordinates":[[[3.826442268100993,7.240861728957985],[3.826324928656764,7.240874086645852],[3.826294349320783,7.240925834971501],[3.826269532753928,7.240985230292506],[3.826199085817235,7.240990382639171],[3.825629652295231,7.240975621571655],[3.825514054242104,7.240976354034432],[3.825455063793134,7.240956357698415],[3.825357301323987,7.240963714863452],[3.825305911452813,7.241097836197183]]]}},
{"type":"Feature","properties":{"OBJECTID":2.0,"SHAPE_Leng":50.715862848699999,"walk":1.0,"drive":0.0,"Shape_Le_1":50.715862848699999},"geometry":{"type":"MultiLineString","coordinates":[[[3.826862237355716,7.241048421990489],[3.826926710134547,7.241076215778473],[3.827142413030228,7.241086593675612],[3.827294438697451,7.24100375416734]]]}},
{"type":"Feature","properties":{"OBJECTID":3.0,"SHAPE_Leng":67.073337958899998,"walk":1.0,"drive":0.0,"Shape_Le_1":67.073337958899998},"geometry":{"type":"MultiLineString","coordinates":[[[3.827294438697451,7.24100375416734],[3.827503655798868,7.240851882693062],[3.827557604771624,7.240812721279939],[3.827650529635578,7.240758267247678],[3.827741526305268,7.240719811795374],[3.827815520118139,7.240704235696956]]]}},
{"type":"Feature","properties":{"OBJECTID":4.0,"SHAPE_Leng":74.546551918299997,"walk":1.0,"drive":0.0,"Shape_Le_1":74.546586099899997},"geometry":{"type":"MultiLineString","coordinates":[[[3.827989298837635,7.240751342301953],[3.828027225929187,7.24078574542372],[3.828058090035761,7.240814254133798],[3.828158374730592,7.240906588858503],[3.828233779608468,7.240965409352942],[3.828260564599691,7.241009027820112],[3.828365942271834,7.241100761681663],[3.828431411381782,7.24112652645904],[3.828477974021969,7.241201607041764]]]}},
{"type":"Feature","properties":{"OBJECTID":5.0,"SHAPE_Leng":8.0005889660899996,"walk":1.0,"drive":0.0,"Shape_Le_1":8.0005889660899996},"geometry":{"type":"MultiLineString","coordinates":[[[3.828172793707229,7.241004495908933],[3.828233779608468,7.240965409352942]]]}},
{"type":"Feature","properties":{"OBJECTID":7.0,"SHAPE_Leng":23.300478099300001,"walk":1.0,"drive":0.0,"Shape_Le_1":23.300478099300001},"geometry":{"type":"MultiLineString","coordinates":[[[3.828409809755044,7.241074322150638],[3.828431411381782,7.24112652645904],[3.828516976797634,7.240998086211949]]]}},
{"type":"Feature","properties":{"OBJECTID":8.0,"SHAPE_Leng":22.778628313199999,"walk":1.0,"drive":0.0,"Shape_Le_1":22.778628313199999},"geometry":{"type":"MultiLineString","coordinates":[[[3.828516976797634,7.240998086211949],[3.82859909173083,7.240945837835119],[3.82868256471823,7.240875915857713]]]}},
{"type":"Feature","properties":{"OBJECTID":9.0,"SHAPE_Leng":15.1843571211,"walk":1.0,"drive":0.0,"Shape_Le_1":15.1843571211},"geometry":{"type":"MultiLineString","coordinates":[[[3.82868256471823,7.240875915857713],[3.828589007192071,7.240775247661395]]]}},
{"type":"Feature","properties":{"OBJECTID":11.0,"SHAPE_Leng":134.529350628,"walk":1.0,"drive":0.0,"Shape_Le_1":134.529350628},"geometry":{"type":"MultiLineString","coordinates":[[[3.82690996143321,7.240678790203743],[3.826820240554974,7.240760319765387],[3.82667056340336,7.240622783622094],[3.826627083881832,7.240595712346436],[3.826579192760571,7.240551918627177],[3.826462205552894,7.240464176107762],[3.826354525198382,7.240316306609874],[3.826251442194749,7.240218507025269],[3.826139884182254,7.240110322903933],[3.82605112271865,7.239988912553828]]]}},
{"type":"Feature","properties":{"OBJECTID":12.0,"SHAPE_Leng":11.978533413799999,"walk":1.0,"drive":0.0,"Shape_Le_1":11.978533413799999},"geometry":{"type":"MultiLineString","coordinates":[[[3.82605112271865,7.239988912553828],[3.825998951689038,7.239965351043497],[3.825963410638961,7.239928494928367]]]}},
{"type":"Feature","properties":{"OBJECTID":13.0,"SHAPE_Leng":98.367300761699994,"walk":1.0,"drive":0.0,"Shape_Le_1":98.367300761699994},"geometry":{"type":"MultiLineString","coordinates":[[[3.82659056893302,7.240341923002332],[3.826540103269586,7.240393912768548],[3.826672984226496,7.240531121291753],[3.826800794954706,7.24065596819423],[3.826852462119243,7.240602746103767],[3.826762140531448,7.240525032213542],[3.826742283728704,7.240477863574177],[3.82659056893302,7.240341923002332]]]}},
{"type":"Feature","properties":{"OBJECTID":14.0,"SHAPE_Leng":18.410933952499999,"walk":1.0,"drive":0.0,"Shape_Le_1":18.410933952499999},"geometry":{"type":"MultiLineString","coordinates":[[[3.826627083881832,7.240595712346436],[3.826672984226496,7.240531121291753],[3.826742283728704,7.240477863574177]]]}},
{"type":"Feature","properties":{"OBJECTID":15.0,"SHAPE_Leng":17.155192790099999,"walk":1.0,"drive":0.0,"Shape_Le_1":17.155192790099999},"geometry":{"type":"MultiLineString","coordinates":[[[3.826514275708346,7.240702410657202],[3.826562910054149,7.24065743586336],[3.826627083881832,7.240595712346436]]]}},
{"type":"Feature","properties":{"OBJECTID":16.0,"SHAPE_Leng":24.8204293828,"walk":1.0,"drive":0.0,"Shape_Le_1":24.8204293828},"geometry":{"type":"MultiLineString","coordinates":[[[3.826385105718286,7.240555796740782],[3.826462205552894,7.240464176107762],[3.826540103269586,7.240393912768548]]]}},
{"type":"Feature","properties":{"OBJECTID":17.0,"SHAPE_Leng":329.86986257900003,"walk":1.0,"drive":0.0,"Shape_Le_1":329.86986257900003},"geometry":{"type":"MultiLineString","coordinates":[[[3.826324928656764,7.240874086645852],[3.826276620967587,7.240839795375296],[3.826159947339969,7.240727289841457],[3.825914759888216,7.240521034960147],[3.825752448283377,7.24035093694697],[3.825671200199614,7.240259447167928],[3.825591644773022,7.240198206962877],[3.825533384041061,7.240183952848815],[3.825427002654379,7.240196351017811],[3.825344903869945,7.24022526645193],[3.825181748358797,7.240249971855886],[3.825102090760669,7.240251587858753],[3.824995693962004,7.240235591125405],[3.824901940299909,7.240233857965546],[3.824750215844312,7.240219414923105],[3.824569949004205,7.240238807351264],[3.824449261040961,7.240202797269574],[3.824366195157566,7.240177031182573],[3.824300592019521,7.240161086132168],[3.824226268040115,7.24014303310538],[3.824133169998158,7.240123753186883],[3.824075965250572,7.240096934425095],[3.824019788619557,7.240069657928392],[3.823969284053331,7.240037002974485],[3.823904563920133,7.239984549905096],[3.823862444762384,7.239949834695751],[3.823825201438828,7.239914693685639],[3.823792321768346,7.23985792732234],[3.823768255802712,7.239802031413475]]]}},
{"type":"Feature","properties":{"OBJECTID":18.0,"SHAPE_Leng":8.3488539609100005,"walk":1.0,"drive":0.0,"Shape_Le_1":8.3488539609100005},"geometry":{"type":"MultiLineString","coordinates":[[[3.823366885239052,7.239617567371987],[3.823441957886393,7.239608496076116]]]}},
{"type":"Feature","properties":{"OBJECTID":19.0,"SHAPE_Leng":42.823360771899999,"walk":1.0,"drive":0.0,"Shape_Le_1":42.823360771899999},"geometry":{"type":"MultiLineString","coordinates":[[[3.825963410638961,7.239928494928367],[3.825812283426195,7.239776257590334],[3.825741514645736,7.239832441162638],[3.825691039167237,7.239897990150603]]]}},
{"type":"Feature","properties":{"OBJECTID":21.0,"SHAPE_Leng":34.895156741800001,"walk":1.0,"drive":0.0,"Shape_Le_1":34.895156741800001},"geometry":{"type":"MultiLineString","coordinates":[[[3.827194297111956,7.240796037050704],[3.827258436039422,7.240820072318614],[3.827354608159899,7.240826778019251],[3.827503655798868,7.240851882693062]]]}},
{"type":"Feature","properties":{"OBJECTID":22.0,"SHAPE_Leng":105.555158472,"walk":1.0,"drive":0.0,"Shape_Le_1":105.555158472},"geometry":{"type":"MultiLineString","coordinates":[[[3.823759326735296,7.240506769305043],[3.823806730624145,7.240487349013831],[3.823851561951296,7.240459333426906],[3.8239233077812,7.240377357548629],[3.824022273148815,7.24023933324152],[3.824084013207851,7.240190401313868],[3.824135293603361,7.240188393661629],[3.824202403443577,7.240192100892806],[3.824309827922703,7.240226367675072],[3.824477308030838,7.24025127267213],[3.824569949004205,7.240238807351264]]]}},
{"type":"Feature","properties":{"OBJECTID":24.0,"SHAPE_Leng":79.937733878399996,"walk":1.0,"drive":0.0,"Shape_Le_1":79.937733878399996},"geometry":{"type":"MultiLineString","coordinates":[[[3.823759326735296,7.240506769305043],[3.823810856260461,7.240560163418451],[3.823845362442273,7.240656692087105],[3.823834039150716,7.240755789253259],[3.823829833578908,7.240816104129214],[3.823810573057279,7.240898703183166],[3.823869373374857,7.240946220277396],[3.823948050661242,7.240986281802643],[3.824003834225469,7.241052429716016],[3.824032237373884,7.241095015326459]]]}},
{"type":"Feature","properties":{"OBJECTID":25.0,"SHAPE_Leng":102.388040201,"walk":1.0,"drive":0.0,"Shape_Le_1":102.388040201},"geometry":{"type":"MultiLineString","coordinates":[[[3.823825201438828,7.239914693685639],[3.823748490146145,7.239900751305854],[3.823661282109741,7.239914311014435],[3.823587491162905,7.23992593071146],[3.823519472596637,7.23994902886314],[3.823467765994569,7.239980711919573],[3.823269736279064,7.2399806069845],[3.823221014546278,7.239922613781189],[3.823143437759688,7.239908395182285],[3.823105846729804,7.239865289742726],[3.823000575575402,7.239767174904244]]]}},
{"type":"Feature","properties":{"OBJECTID":26.0,"SHAPE_Leng":33.366643342899998,"walk":1.0,"drive":0.0,"Shape_Le_1":33.366643342899998},"geometry":{"type":"MultiLineString","coordinates":[[[3.823143437759688,7.239908395182285],[3.822915633942146,7.239888282199955],[3.822842649019894,7.239879373685036]]]}},
{"type":"Feature","properties":{"OBJECTID":27.0,"SHAPE_Leng":42.167469121300002,"walk":1.0,"drive":0.0,"Shape_Le_1":42.167469121300002},"geometry":{"type":"MultiLineString","coordinates":[[[3.822277658197164,7.239673985773141],[3.822351920345989,7.239722975733381],[3.822390330863051,7.239760000644999],[3.822451887648786,7.239785815017635],[3.82255260922871,7.239792029641173],[3.822623284652636,7.239805046981814]]]}},
{"type":"Feature","properties":{"OBJECTID":28.0,"SHAPE_Leng":156.12644849599999,"walk":1.0,"drive":0.0,"Shape_Le_1":156.12644849599999},"geometry":{"type":"MultiLineString","coordinates":[[[3.822277658197164,7.239673985773141],[3.82235833613722,7.239626639813514],[3.822430757410314,7.23958642442912],[3.822476185640434,7.239528905944487],[3.822528813316701,7.239476161948021],[3.822620923874128,7.239374445923866],[3.82273431595487,7.239263678123493],[3.822824731367337,7.239168746138231],[3.822933803244711,7.239053677086217],[3.82327321761355,7.238681687328137]]]}},
{"type":"Feature","properties":{"OBJECTID":29.0,"SHAPE_Leng":7.3156370639599997,"walk":1.0,"drive":0.0,"Shape_Le_1":7.3156370639599997},"geometry":{"type":"MultiLineString","coordinates":[[[3.82327321761355,7.238681687328137],[3.823319661572072,7.238728882264857]]]}},
{"type":"Feature","properties":{"OBJECTID":30.0,"SHAPE_Leng":70.513053531200001,"walk":1.0,"drive":0.0,"Shape_Le_1":70.513053531200001},"geometry":{"type":"MultiLineString","coordinates":[[[3.822528813316701,7.239476161948021],[3.822583041602485,7.239516483194476],[3.822626240600356,7.239550867350397],[3.822688630556603,7.239602114620665],[3.822718436991116,7.239645469338937],[3.822754454840231,7.23968417276369],[3.822830031244408,7.23973213908865],[3.822884775365157,7.239700724674513],[3.822924012922774,7.239667819635455],[3.823000575575402,7.239767174904244]]]}},
{"type":"Feature","properties":{"OBJECTID":32.0,"SHAPE_Leng":107.754110555,"walk":1.0,"drive":0.0,"Shape_Le_1":107.754110555},"geometry":{"type":"MultiLineString","coordinates":[[[3.82139036711436,7.239105865071001],[3.821409799077407,7.239181883697522],[3.821514152689213,7.239294259097633],[3.821600593764711,7.239386431398744],[3.82166543417559,7.23946097965796],[3.82173312439149,7.239521164785443],[3.821777777265867,7.239564160828569],[3.821823845883439,7.239595668110924],[3.821892887789383,7.239608466013479],[3.822054394036889,7.239705834693479],[3.822105622848584,7.239704863016421]]]}},
{"type":"Feature","properties":{"OBJECTID":33.0,"SHAPE_Leng":70.618168537700001,"walk":1.0,"drive":0.0,"Shape_Le_1":70.078693010099997},"geometry":{"type":"MultiLineString","coordinates":[[[3.82139036711436,7.239105865071001],[3.821361190432119,7.239165701309112],[3.821292699326234,7.239141400745105],[3.82123543729203,7.239194936264368],[3.821160782826648,7.239309029343374],[3.821048808018825,7.2394133967351],[3.820926083823028,7.239447243607032]]]}},
{"type":"Feature","properties":{"OBJECTID":34.0,"SHAPE_Leng":22.011286917100001,"walk":1.0,"drive":0.0,"Shape_Le_1":22.011286917100001},"geometry":{"type":"MultiLineString","coordinates":[[[3.821228120702802,7.239138915900969],[3.821184418318227,7.23919021003507],[3.82114481153543,7.239260411611231],[3.821160782826648,7.239309029343374]]]}},
{"type":"Feature","properties":{"OBJECTID":35.0,"SHAPE_Leng":18.483348027400002,"walk":1.0,"drive":0.0,"Shape_Le_1":18.61154774},"geometry":{"type":"MultiLineString","coordinates":[[[3.82139036711436,7.239105865071001],[3.821292699326234,7.239141400745105],[3.821228120702802,7.239138915900969]]]}},
{"type":"Feature","properties":{"OBJECTID":37.0,"SHAPE_Leng":43.050971285899998,"walk":1.0,"drive":0.0,"Shape_Le_1":43.248547688599999},"geometry":{"type":"MultiLineString","coordinates":[[[3.821361190432119,7.239165701309112],[3.821409799077407,7.239181883697522],[3.821410891296885,7.239244896189182],[3.821427208744606,7.239323122881576],[3.821438474341817,7.239390588847773],[3.821426649549706,7.239458601183756],[3.821397460584962,7.23951065425512]]]}},
{"type":"Feature","properties":{"OBJECTID":38.0,"SHAPE_Leng":43.000407837399997,"walk":1.0,"drive":0.0,"Shape_Le_1":41.216041308900003},"geometry":{"type":"MultiLineString","coordinates":[[[3.821489965309115,7.239477949896495],[3.821426649549706,7.239458601183756],[3.821320071887894,7.239458662312916],[3.82124969479237,7.239465819920953],[3.821172787663815,7.239481757486132],[3.821138702451892,7.239519960679551]]]}},
{"type":"Feature","properties":{"OBJECTID":39.0,"SHAPE_Leng":10.2977240519,"walk":1.0,"drive":0.0,"Shape_Le_1":10.2977240519},"geometry":{"type":"MultiLineString","coordinates":[[[3.821397460584962,7.23951065425512],[3.821320071887894,7.239458662312916]]]}},
{"type":"Feature","properties":{"OBJECTID":40.0,"SHAPE_Leng":6.8619198275800004,"walk":1.0,"drive":0.0,"Shape_Le_1":6.8619198275800004},"geometry":{"type":"MultiLineString","coordinates":[[[3.821397460584962,7.23951065425512],[3.821336126342426,7.239520690855294]]]}},
{"type":"Feature","properties":{"OBJECTID":41.0,"SHAPE_Leng":7.0831682886899996,"walk":1.0,"drive":0.0,"Shape_Le_1":7.0831682886899996},"geometry":{"type":"MultiLineString","coordinates":[[[3.821320071887894,7.239458662312916],[3.821336126342426,7.239520690855294]]]}},
{"type":"Feature","properties":{"OBJECTID":42.0,"SHAPE_Leng":23.278930611900002,"walk":1.0,"drive":0.0,"Shape_Le_1":23.278930611900002},"geometry":{"type":"MultiLineString","coordinates":[[[3.821201256271092,7.239544206846808],[3.821172787663815,7.239481757486132],[3.821096672996454,7.23944657327309],[3.821048808018825,7.2394133967351]]]}},
{"type":"Feature","properties":{"OBJECTID":43.0,"SHAPE_Leng":19.042426336799998,"walk":1.0,"drive":0.0,"Shape_Le_1":19.042426336799998},"geometry":{"type":"MultiLineString","coordinates":[[[3.820826852331304,7.239633936059858],[3.820881009673442,7.239598012205964],[3.820931278150164,7.239572866104325],[3.820973192314202,7.239543435086264]]]}},
{"type":"Feature","properties":{"OBJECTID":44.0,"SHAPE_Leng":16.025845798500001,"walk":1.0,"drive":0.0,"Shape_Le_1":16.025845798500001},"geometry":{"type":"MultiLineString","coordinates":[[[3.821005958871909,7.239696121952137],[3.821010285690442,7.239623504782402],[3.821030463764407,7.239554165865966]]]}},
{"type":"Feature","properties":{"OBJECTID":45.0,"SHAPE_Leng":20.5394220021,"walk":1.0,"drive":0.0,"Shape_Le_1":20.5394220021},"geometry":{"type":"MultiLineString","coordinates":[[[3.821989868147719,7.238253119266479],[3.821907500932952,7.238247799363037],[3.821855975777714,7.238239084377683],[3.82180589441206,7.238249895763411]]]}},
{"type":"Feature","properties":{"OBJECTID":46.0,"SHAPE_Leng":57.953283987600003,"walk":1.0,"drive":0.0,"Shape_Le_1":57.953283987600003},"geometry":{"type":"MultiLineString","coordinates":[[[3.823269736279064,7.2399806069845],[3.823465011432545,7.240188350293431],[3.823522605055307,7.240231322729618],[3.823585663824329,7.240329095012482],[3.823632844823272,7.240309139682128]]]}},
{"type":"Feature","properties":{"OBJECTID":47.0,"SHAPE_Leng":7.3048318696300001,"walk":1.0,"drive":0.0,"Shape_Le_1":7.3048318696300001},"geometry":{"type":"MultiLineString","coordinates":[[[3.826009634849159,7.240040381265216],[3.82605112271865,7.239988912553828]]]}},
{"type":"Feature","properties":{"OBJECTID":50.0,"SHAPE_Leng":195.086934359,"walk":1.0,"drive":0.0,"Shape_Le_1":195.35058765700001},"geometry":{"type":"MultiLineString","coordinates":[[[3.823801847848661,7.243864067913456],[3.823791304386666,7.243696252380695],[3.823090101963715,7.242912567194607],[3.822678584203692,7.242550257469822]]]}},
{"type":"Feature","properties":{"OBJECTID":51.0,"SHAPE_Leng":59.462412526400001,"walk":1.0,"drive":0.0,"Shape_Le_1":59.462412526400001},"geometry":{"type":"MultiLineString","coordinates":[[[3.825305911452813,7.241097836197183],[3.825464890931887,7.241119027870579],[3.825542815058929,7.241139827425764],[3.825674654367295,7.24115753619191],[3.825758657163863,7.241226186963331],[3.825773732725514,7.241280005131869]]]}},
{"type":"Feature","properties":{"OBJECTID":52.0,"SHAPE_Leng":7.3593003907899996,"walk":1.0,"drive":0.0,"Shape_Le_1":7.3593003907899996},"geometry":{"type":"MultiLineString","coordinates":[[[3.827899936321854,7.240737236434266],[3.827953614773097,7.24069777156105]]]}},
{"type":"Feature","properties":{"OBJECTID":53.0,"SHAPE_Leng":6.2675055799799999,"walk":1.0,"drive":0.0,"Shape_Le_1":6.2675055799799999},"geometry":{"type":"MultiLineString","coordinates":[[[3.821048808018825,7.2394133967351],[3.821011582788162,7.239370597059697]]]}},
{"type":"Feature","properties":{"OBJECTID":55.0,"SHAPE_Leng":12.534185638,"walk":1.0,"drive":0.0,"Shape_Le_1":12.534185638},"geometry":{"type":"MultiLineString","coordinates":[[[3.821138702451892,7.239519960679551],[3.821030463764407,7.239554165865966]]]}},
{"type":"Feature","properties":{"OBJECTID":58.0,"SHAPE_Leng":6.4333895930700002,"walk":1.0,"drive":0.0,"Shape_Le_1":6.4333895930700002},"geometry":{"type":"MultiLineString","coordinates":[[[3.820973192314202,7.239543435086264],[3.821030463764407,7.239554165865966]]]}},
{"type":"Feature","properties":{"OBJECTID":59.0,"SHAPE_Leng":18.587653120700001,"walk":1.0,"drive":0.0,"Shape_Le_1":18.587653120700001},"geometry":{"type":"MultiLineString","coordinates":[[[3.8217460380612,7.23980204911754],[3.821694953378711,7.239798088276316],[3.821653113197121,7.239747268683669],[3.821611290666875,7.23971770833842]]]}},
{"type":"Feature","properties":{"OBJECTID":60.0,"SHAPE_Leng":25.8461682943,"walk":1.0,"drive":0.0,"Shape_Le_1":25.8461682943},"geometry":{"type":"MultiLineString","coordinates":[[[3.821616518267243,7.239839584320826],[3.821559122966333,7.239811991316827],[3.821475514862383,7.239778298647109],[3.821397920558595,7.239757876736521]]]}},
{"type":"Feature","properties":{"OBJECTID":64.0,"SHAPE_Leng":8.2388649802299998,"walk":1.0,"drive":0.0,"Shape_Le_1":8.2388649802299998},"geometry":{"type":"MultiLineString","coordinates":[[[3.822924012922774,7.239667819635455],[3.822856281640192,7.239636538859079]]]}},
{"type":"Feature","properties":{"OBJECTID":65.0,"SHAPE_Leng":17.3362016094,"walk":1.0,"drive":0.0,"Shape_Le_1":17.3362016094},"geometry":{"type":"MultiLineString","coordinates":[[[3.825087583771245,7.241341668865451],[3.824944447008295,7.241277195371996]]]}},
{"type":"Feature","properties":{"OBJECTID":66.0,"SHAPE_Leng":11.5782877302,"walk":1.0,"drive":0.0,"Shape_Le_1":11.5782877302},"geometry":{"type":"MultiLineString","coordinates":[[[3.824784585671033,7.241352925447731],[3.824852414226762,7.241273054052963]]]}},
{"type":"Feature","properties":{"OBJECTID":67.0,"SHAPE_Leng":7.1133655342299997,"walk":1.0,"drive":0.0,"Shape_Le_1":7.1133655342299997},"geometry":{"type":"MultiLineString","coordinates":[[[3.827989298837635,7.240751342301953],[3.827953614773097,7.24069777156105]]]}},
{"type":"Feature","properties":{"OBJECTID":68.0,"SHAPE_Leng":11.505030104899999,"walk":1.0,"drive":0.0,"Shape_Le_1":11.505030104899999},"geometry":{"type":"MultiLineString","coordinates":[[[3.828058090035761,7.240814254133798],[3.828077244725353,7.24076493787993],[3.828113103360763,7.240801485696131]]]}},
{"type":"Feature","properties":{"OBJECTID":1.0,"SHAPE_Leng":487.21377841100002,"walk":1.0,"drive":1.0,"Shape_Le_1":487.15799946700002},"geometry":{"type":"MultiLineString","coordinates":[[[3.822028351312838,7.237365673684597],[3.821984785964494,7.237658675301992],[3.821971209796696,7.237881950330404],[3.821989868147719,7.238253119266479],[3.821993584216473,7.238327036145116],[3.822072055240619,7.238848841351636],[3.822177848684389,7.239372151097246],[3.822277658197164,7.239673985773141],[3.822512835828383,7.240117610700694],[3.822793894413534,7.240486845446622],[3.823013550062296,7.240694651605366],[3.823072977995575,7.240737686806817],[3.823434688228305,7.240999615949328],[3.823548652239231,7.241071204135526],[3.823668606057975,7.241142781449882]]]}},
{"type":"Feature","properties":{"OBJECTID":2.0,"SHAPE_Leng":82.568287210099996,"walk":1.0,"drive":1.0,"Shape_Le_1":80.914674081800001},"geometry":{"type":"MultiLineString","coordinates":[[[3.823815280701934,7.241326115102898],[3.823894682826401,7.241303893541433],[3.823938810649417,7.241251041755588],[3.823944440133233,7.241183283015861],[3.823902610093273,7.241115801938258],[3.823822166116554,7.241092966111333],[3.823751551623631,7.24111813488173],[3.823717322295627,7.241162698931264],[3.823708182061479,7.241210499991576],[3.823720171316901,7.241260246373025],[3.823752716370441,7.241299766405585],[3.823815280701934,7.241326115102898]]]}},
{"type":"Feature","properties":{"OBJECTID":3.0,"SHAPE_Leng":5.8118224107499996,"walk":1.0,"drive":1.0,"Shape_Le_1":5.81182497051},"geometry":{"type":"MultiLineString","coordinates":[[[3.823668606057975,7.241142781449882],[3.823717322295627,7.241162698931264]]]}},
{"type":"Feature","properties":{"OBJECTID":4.0,"SHAPE_Leng":585.33845527999995,"walk":1.0,"drive":1.0,"Shape_Le_1":584.89097913800003},"geometry":{"type":"MultiLineString","coordinates":[[[3.823938810649417,7.241251041755588],[3.824243983739903,7.241362119381572],[3.824899311011369,7.241628964075745],[3.825314261398618,7.241824450270658],[3.825578100590688,7.241948415859392],[3.825734564544027,7.241998687876651],[3.825871175082759,7.241938431249809],[3.826133954230142,7.241742672875747],[3.826393794618887,7.241512459342654],[3.826745302866191,7.241154325571445],[3.826797375269357,7.241101271885897],[3.826862237355716,7.241048421990489],[3.827194297111956,7.240796037050704],[3.827516928832118,7.240550818175659],[3.827626859653341,7.24046627415292],[3.827794532136363,7.240337322942657],[3.827945225622576,7.240181294846032],[3.828162694740429,7.239845858956208],[3.828191325815086,7.239776404971614]]]}},
{"type":"Feature","properties":{"OBJECTID":5.0,"SHAPE_Leng":743.74011001600002,"walk":1.0,"drive":1.0,"Shape_Le_1":743.19010979500001},"geometry":{"type":"MultiLineString","coordinates":[[[3.828501259730457,7.242548960751072],[3.828303190640239,7.242353083006915],[3.827937670061368,7.241994896099593],[3.827561356293613,7.241696916267441],[3.827076587801288,7.241378838093723],[3.826745302866191,7.241154325571445],[3.826637725915572,7.241050454253714],[3.826442268100993,7.240861728957985],[3.826217707084881,7.240644903061055],[3.825627668171255,7.240039609793317],[3.825420640609117,7.239858105627317],[3.825231651160578,7.239711868401697],[3.825024769588907,7.239610533729433],[3.824964804130457,7.239580728913079],[3.824832969818474,7.239566010139891],[3.824644052206053,7.239458661299646],[3.824455377983669,7.239320698364186],[3.824239365211917,7.239139209837256],[3.824078565954922,7.239010271059217],[3.82396341370906,7.238943470789619],[3.823775099591233,7.238773119582574],[3.823552383568682,7.238595473334485],[3.823457381843586,7.238539166611989],[3.82327321761355,7.238681687328137]]]}},
{"type":"Feature","properties":{"OBJECTID":6.0,"SHAPE_Leng":206.740377792,"walk":1.0,"drive":1.0,"Shape_Le_1":207.806293162},"geometry":{"type":"MultiLineString","coordinates":[[[3.82396341370906,7.238943470789619],[3.823919503411651,7.238969839427155],[3.823809684903978,7.239095570426335],[3.823502519989778,7.239362064224336],[3.823375311445629,7.239481194830076],[3.82335949914448,7.239529864511607],[3.823173501556668,7.23965007010397],[3.823000575575402,7.239767174904244],[3.822958168424652,7.239795892435712],[3.822842649019894,7.239879373685036],[3.822794591323854,7.23991386486618],[3.822614681732854,7.240043962587642],[3.822512835828383,7.240117610700694]]]}},
{"type":"Feature","properties":{"OBJECTID":7.0,"SHAPE_Leng":52.614264118800001,"walk":1.0,"drive":1.0,"Shape_Le_1":52.8952625975},"geometry":{"type":"MultiLineString","coordinates":[[[3.822842649019894,7.239879373685036],[3.822785870318272,7.239862187767574],[3.822700233051298,7.239816395033382],[3.822623284652636,7.239805046981814],[3.822596109668498,7.239884787628874],[3.822607771867529,7.239973074329745],[3.822614681732854,7.240043962587642]]]}},
{"type":"Feature","properties":{"OBJECTID":8.0,"SHAPE_Leng":486.03022422800001,"walk":1.0,"drive":1.0,"Shape_Le_1":486.03022288400001},"geometry":{"type":"MultiLineString","coordinates":[[[3.823720171316901,7.241260246373025],[3.823466403975535,7.24152363529459],[3.823275306211994,7.241743700259478],[3.82287808382438,7.242195978326079],[3.822694733936156,7.242362378003973],[3.822646839440934,7.24238161005192],[3.822591233319475,7.242377880928514],[3.822499158606206,7.242351244412911],[3.822380157686212,7.24227679331165],[3.821996699159176,7.241958160002802],[3.821754755268154,7.241749914240389],[3.821654914605725,7.241669683865557],[3.82145284221742,7.241598828575467],[3.820946651298109,7.241571024122226],[3.82058235288716,7.241554451312651],[3.820429776034434,7.241527699106331],[3.820305956397431,7.24143889719998],[3.820136311269654,7.241313313256783]]]}},
{"type":"Feature","properties":{"OBJECTID":9.0,"SHAPE_Leng":573.44294031899994,"walk":1.0,"drive":1.0,"Shape_Le_1":571.25846335300002},"geometry":{"type":"MultiLineString","coordinates":[[[3.823815280701934,7.241326115102898],[3.823381380392519,7.241748930825196],[3.822835381114228,7.242380524794774],[3.822678584203692,7.242550257469822],[3.82253066130898,7.242510306435207],[3.822359695228099,7.242391555677371],[3.82191739324409,7.242007131559174],[3.821633433294995,7.241767604527192],[3.821448138997551,7.241676620136241],[3.821245705739164,7.241716172760416],[3.821122819302203,7.241855915774546],[3.821082626554944,7.242004362792531],[3.821165654649722,7.242197341072443],[3.821310412305712,7.242334206937412],[3.821510598900756,7.242510461191877],[3.821833928722939,7.242841727139241],[3.822033694684122,7.243050048976333]]]}},
{"type":"Feature","properties":{"OBJECTID":10.0,"SHAPE_Leng":214.366530391,"walk":1.0,"drive":1.0,"Shape_Le_1":215.31078199300001},"geometry":{"type":"MultiLineString","coordinates":[[[3.822277658197164,7.239673985773141],[3.822105622848584,7.239704863016421],[3.822054394036889,7.239705834693479],[3.8217460380612,7.23980204911754],[3.821694953378711,7.239798088276316],[3.821616518267243,7.239839584320826],[3.821530455156948,7.239864736300544],[3.821252665998805,7.239977715268754],[3.821191773085831,7.239965381052538],[3.821145610790648,7.239943177526282],[3.821064364032502,7.239879456662721],[3.820987298389826,7.239802775850944],[3.820950338166797,7.239751769198778],[3.820900291304763,7.239696614601767],[3.820826852331304,7.239633936059858],[3.820794397313598,7.239609945818406],[3.820759514937456,7.23957246666963],[3.820686086259856,7.239519470718352],[3.820556662650965,7.239512525014803]]]}},
{"type":"Feature","properties":{"OBJECTID":11.0,"SHAPE_Leng":27.829014214299999,"walk":1.0,"drive":1.0,"Shape_Le_1":28.284622548000002},"geometry":{"type":"MultiLineString","coordinates":[[[3.820759514937456,7.23957246666963],[3.820776274790837,7.239538738527972],[3.820772302300066,7.239487725748374],[3.82081023574373,7.239453328999002],[3.820870011028187,7.239450217392808],[3.820926083823028,7.239447243607032]]]}},
{"type":"Feature","properties":{"OBJECTID":12.0,"SHAPE_Leng":48.306877226499999,"walk":1.0,"drive":1.0,"Shape_Le_1":48.306825138199997},"geometry":{"type":"MultiLineString","coordinates":[[[3.820772302300066,7.239487725748374],[3.820759988663047,7.23941415267439],[3.82073936822642,7.239275386697702],[3.820715173594443,7.239148593651534],[3.820673983922618,7.239065207278032]]]}},
{"type":"Feature","properties":{"OBJECTID":13.0,"SHAPE_Leng":38.151323010600002,"walk":1.0,"drive":1.0,"Shape_Le_1":38.245123505700001},"geometry":{"type":"MultiLineString","coordinates":[[[3.821252665998805,7.239977715268754],[3.821187271327625,7.240017880724102],[3.82110482288122,7.240098032161329],[3.820997660829473,7.240209267766251]]]}},
{"type":"Feature","properties":{"OBJECTID":14.0,"SHAPE_Leng":63.602877950600003,"walk":1.0,"drive":1.0,"Shape_Le_1":64.365402810800006},"geometry":{"type":"MultiLineString","coordinates":[[[3.821252665998805,7.239977715268754],[3.821187271327625,7.240017880724102],[3.821075918790555,7.240017674552397],[3.820972404753089,7.240025518708958],[3.820889973406767,7.240029496996591],[3.820790341885536,7.240064137963725],[3.820717619840742,7.240137021357374]]]}},
{"type":"Feature","properties":{"OBJECTID":15.0,"SHAPE_Leng":42.352380003199997,"walk":1.0,"drive":1.0,"Shape_Le_1":42.222359233799999},"geometry":{"type":"MultiLineString","coordinates":[[[3.820900291304763,7.239696614601767],[3.820825362444328,7.239685081698044],[3.820744960789193,7.239707002410849],[3.820671684447638,7.239737287713714],[3.820527907862301,7.239744726767009]]]}},
{"type":"Feature","properties":{"OBJECTID":16.0,"SHAPE_Leng":53.745025959300001,"walk":1.0,"drive":1.0,"Shape_Le_1":56.651529489600001},"geometry":{"type":"MultiLineString","coordinates":[[[3.821187271327625,7.240017880724102],[3.821054556977728,7.239954853283892],[3.820981141188407,7.239909037262264],[3.820910654019987,7.239891932808199],[3.82070359829671,7.239892307034758]]]}},
{"type":"Feature","properties":{"OBJECTID":17.0,"SHAPE_Leng":33.098182124499999,"walk":1.0,"drive":1.0,"Shape_Le_1":33.413331912399997},"geometry":{"type":"MultiLineString","coordinates":[[[3.820950338166797,7.239751769198778],[3.821005958871909,7.239696121952137],[3.821099070083143,7.239603075798141],[3.821138702451892,7.239519960679551]]]}},
{"type":"Feature","properties":{"OBJECTID":18.0,"SHAPE_Leng":51.277723063899998,"walk":1.0,"drive":1.0,"Shape_Le_1":51.824401475800002},"geometry":{"type":"MultiLineString","coordinates":[[[3.821191773085831,7.239965381052538],[3.821152296590382,7.239881303330962],[3.821130596284451,7.239808110814876],[3.821114620659279,7.239720550897862],[3.821099070083143,7.239603075798141],[3.821138702451892,7.239519960679551]]]}},
{"type":"Feature","properties":{"OBJECTID":19.0,"SHAPE_Leng":91.617258403299999,"walk":1.0,"drive":1.0,"Shape_Le_1":92.783688585700006},"geometry":{"type":"MultiLineString","coordinates":[[[3.823072977995575,7.240737686806817],[3.823171027798939,7.240660994564649],[3.823262885999196,7.240568931643117],[3.823383468100572,7.240457672189094],[3.823456244374714,7.240415419975688],[3.823515662569382,7.240407655024184],[3.823575124252223,7.240422863279745],[3.823645594226944,7.240429915667974],[3.823697951930658,7.240493478450711],[3.823759326735296,7.240506769305043]]]}},
{"type":"Feature","properties":{"OBJECTID":21.0,"SHAPE_Leng":180.36388950899999,"walk":1.0,"drive":1.0,"Shape_Le_1":184.35179667099999},"geometry":{"type":"MultiLineString","coordinates":[[[3.823902610093273,7.241115801938258],[3.824003834225469,7.241052429716016],[3.824032237373884,7.241095015326459],[3.824084369217706,7.241110929616703],[3.824195358824618,7.241194488586363],[3.824315313666611,7.241266065713051],[3.824462229327378,7.241337594872518],[3.824555141941287,7.241364348877536],[3.824784585671033,7.241352925447731],[3.82486229175659,7.241385809575306],[3.824919746307095,7.241417893734423],[3.824983001336104,7.241410599199603],[3.825047646372759,7.241373723321074],[3.825087583771245,7.241341668865451],[3.825260090447512,7.241203217033426],[3.825305911452813,7.241097836197183]]]}},
{"type":"Feature","properties":{"OBJECTID":22.0,"SHAPE_Leng":1119.1466393600001,"walk":1.0,"drive":1.0,"Shape_Le_1":1119.14664885},"geometry":{"type":"MultiLineString","coordinates":[[[3.817600454046391,7.238908633859364],[3.818040393223855,7.239409448867473],[3.818795668557836,7.240241028020668],[3.819200848214832,7.240668074552298],[3.819912252098616,7.241378477990948],[3.820565210975785,7.241993106983863],[3.821390588335379,7.24271985526672],[3.82211660476228,7.243312524185774],[3.822731943913481,7.243794828076765],[3.823132823335206,7.244093965146962],[3.823613950697866,7.244439561589221],[3.82397812185001,7.244692577062458],[3.82457326964502,7.245095602074779],[3.825131909197411,7.24547050380653],[3.82521529921316,7.245531976717325]]]}},
{"type":"Feature","properties":{"OBJECTID":23.0,"SHAPE_Leng":448.36409849299997,"walk":1.0,"drive":1.0,"Shape_Le_1":448.58137075899998},"geometry":{"type":"MultiLineString","coordinates":[[[3.822033694684122,7.243050048976333],[3.822352990520583,7.243267600355504],[3.822777456087114,7.243646562196523],[3.823645536345333,7.244280260686463],[3.824666005851995,7.24495910388373],[3.825336404811322,7.245405407141862]]]}},
{"type":"Feature","properties":{"OBJECTID":24.0,"SHAPE_Leng":683.49183291999998,"walk":1.0,"drive":1.0,"Shape_Le_1":683.55697180699997},"geometry":{"type":"MultiLineString","coordinates":[[[3.822033694684122,7.243050048976333],[3.822352990520583,7.243267600355504],[3.82271733188165,7.24346850780394],[3.823031416043862,7.243678298436977],[3.823358061688521,7.243811245443214],[3.823660124619051,7.243868134225263],[3.823801847848661,7.243864067913456],[3.824274510657016,7.243850509149283],[3.825002447737839,7.243783508996943],[3.825549560871437,7.243733777017847],[3.826107381990405,7.243686656129636],[3.826616558232848,7.243641696952598],[3.827041064071836,7.243600561563257],[3.827367929928518,7.243525001880442],[3.827699578957332,7.243378416853411],[3.827919024355833,7.24323921474609]]]}},
{"type":"Feature","properties":{"OBJECTID":25.0,"SHAPE_Leng":382.36093070300001,"walk":1.0,"drive":1.0,"Shape_Le_1":382.36100276899998},"geometry":{"type":"MultiLineString","coordinates":[[[3.817736087886182,7.238826329759244],[3.817979861179272,7.239120249658776],[3.818563825420474,7.23975156210688],[3.819105780839263,7.240343491425784],[3.819761207994861,7.240999231345071],[3.820136311269654,7.241313313256783]]]}},
{"type":"Feature","properties":{"OBJECTID":26.0,"SHAPE_Leng":120.201195535,"walk":1.0,"drive":1.0,"Shape_Le_1":120.25185985100001},"geometry":{"type":"MultiLineString","coordinates":[[[3.827626859653341,7.24046627415292],[3.827665443837859,7.240499940761829],[3.827702411430642,7.240575929820861],[3.827752127408839,7.240635429360981],[3.827815520118139,7.240704235696956],[3.827851634587042,7.240720162394153],[3.827899936321854,7.240737236434266],[3.828172793707229,7.241004495908933],[3.828393536855771,7.241220710796691]]]}},
{"type":"Feature","properties":{"OBJECTID":27.0,"SHAPE_Leng":30.990144945200001,"walk":1.0,"drive":1.0,"Shape_Le_1":32.823012426799998},"geometry":{"type":"MultiLineString","coordinates":[[[3.826797375269357,7.241101271885897],[3.826737898014779,7.241063176754231],[3.826683783202846,7.241020293425946],[3.826665837059908,7.240972367871091],[3.826683783202846,7.241020293425946],[3.826637725915572,7.241050454253714]]]}},
{"type":"Feature","properties":{"OBJECTID":28.0,"SHAPE_Leng":82.328731775899996,"walk":1.0,"drive":1.0,"Shape_Le_1":82.328683125799998},"geometry":{"type":"MultiLineString","coordinates":[[[3.826665837059908,7.240972367871091],[3.826662183671405,7.24092039135394],[3.826658530284402,7.240868414836525],[3.826514275708346,7.240702410657202],[3.826385105718286,7.240555796740782],[3.826235871332514,7.240386722586672]]]}},
{"type":"Feature","properties":{"OBJECTID":29.0,"SHAPE_Leng":38.41446641,"walk":1.0,"drive":1.0,"Shape_Le_1":40.054789032199999},"geometry":{"type":"MultiLineString","coordinates":[[[3.823375311445629,7.239481194830076],[3.82335949914448,7.239529864511607],[3.82338898048885,7.239564741925974],[3.823366885239052,7.239617567371987],[3.823305836913787,7.239652377864477],[3.823220668891994,7.239670057393345],[3.823173501556668,7.23965007010397]]]}},
{"type":"Feature","properties":{"OBJECTID":30.0,"SHAPE_Leng":171.33727591900001,"walk":1.0,"drive":1.0,"Shape_Le_1":171.337213773},"geometry":{"type":"MultiLineString","coordinates":[[[3.822028351312838,7.237365673684597],[3.822036099236829,7.237211113819752],[3.822107642242237,7.237017140237038],[3.822114442202893,7.236801743844012],[3.822257761953019,7.236543025262243],[3.822408323376973,7.236313011335296],[3.822810903268782,7.236297925361483]]]}},
{"type":"Feature","properties":{"OBJECTID":32.0,"SHAPE_Leng":55.182834957099999,"walk":1.0,"drive":1.0,"Shape_Le_1":53.8807125672},"geometry":{"type":"MultiLineString","coordinates":[[[3.826235871332514,7.240386722586672],[3.826134825009989,7.240286726781365],[3.826081527827058,7.240234653110506],[3.826003985668782,7.24016036650539],[3.825951464494365,7.240095208785293],[3.826009634849159,7.240040381265216]]]}},
{"type":"Feature","properties":{"OBJECTID":33.0,"SHAPE_Leng":20.5708094236,"walk":1.0,"drive":1.0,"Shape_Le_1":20.5708051535},"geometry":{"type":"MultiLineString","coordinates":[[[3.820673983922618,7.239065207278032],[3.820487735259998,7.239070398293142]]]}},
{"type":"Feature","properties":{"OBJECTID":34.0,"SHAPE_Leng":15.104279937799999,"walk":1.0,"drive":1.0,"Shape_Le_1":15.2169693537},"geometry":{"type":"MultiLineString","coordinates":[[[3.826662183671405,7.24092039135394],[3.826722619988348,7.240858466575381],[3.826769607118425,7.240838060842932]]]}}
]
}
