{
"type": "FeatureCollection",
"name": "Foot_path",
"crs": { "type": "name", "properties": { "name": "urn:ogc:def:crs:OGC:1.3:CRS84" } },
"features": [
{"type":"Feature","properties":{"OBJECTID_1":1,"OBJECTID":1.0,"SHAPE_Leng":143.81440557,"walk":1.0,"drive":0.0,"Shape_Le_1":143.81440557},"geometry":{"type":"MultiLineString","coordinates":[[[3.826442268100993,7.240861728957985],[3.826324928656764,7.240874086645852],[3.826294349320783,7.240925834971501],[3.826269532753928,7.240985230292506],[3.826199085817235,7.240990382639171],[3.825629652295231,7.240975621571655],[3.825514054242104,7.240976354034432],[3.825455063793134,7.240956357698415],[3.825357301323987,7.240963714863452],[3.825305911452813,7.241097836197183]]]}},
{"type":"Feature","properties":{"OBJECTID_1":2,"OBJECTID":2.0,"SHAPE_Leng":50.715862848699999,"walk":1.0,"drive":0.0,"Shape_Le_1":50.715862848699999},"geometry":{"type":"MultiLineString","coordinates":[[[3.826862237355716,7.241048421990489],[3.826926710134547,7.241076215778473],[3.827142413030228,7.241086593675612],[3.827294438697451,7.24100375416734]]]}},
{"type":"Feature","properties":{"OBJECTID_1":3,"OBJECTID":3.0,"SHAPE_Leng":67.073337958899998,"walk":1.0,"drive":0.0,"Shape_Le_1":67.073337958899998},"geometry":{"type":"MultiLineString","coordinates":[[[3.827294438697451,7.24100375416734],[3.827503655798868,7.240851882693062],[3.827557604771624,7.240812721279939],[3.827650529635578,7.240758267247678],[3.827741526305268,7.240719811795374],[3.827815520118139,7.240704235696956]]]}},
{"type":"Feature","properties":{"OBJECTID_1":4,"OBJECTID":4.0,"SHAPE_Leng":74.546551918299997,"walk":1.0,"drive":0.0,"Shape_Le_1":74.546586099899997},"geometry":{"type":"MultiLineString","coordinates":[[[3.827989298837635,7.240751342301953],[3.828027225929187,7.24078574542372],[3.828058090035761,7.240814254133798],[3.828158374730592,7.240906588858503],[3.828233779608468,7.240965409352942],[3.828260564599691,7.241009027820112],[3.828365942271834,7.241100761681663],[3.828431411381782,7.24112652645904],[3.828477974021969,7.241201607041764]]]}},
{"type":"Feature","properties":{"OBJECTID_1":5,"OBJECTID":5.0,"SHAPE_Leng":8.0005889660899996,"walk":1.0,"drive":0.0,"Shape_Le_1":8.0005889660899996},"geometry":{"type":"MultiLineString","coordinates":[[[3.828172793707229,7.241004495908933],[3.828233779608468,7.240965409352942]]]}},
{"type":"Feature","properties":{"OBJECTID_1":7,"OBJECTID":7.0,"SHAPE_Leng":23.300478099300001,"walk":1.0,"drive":0.0,"Shape_Le_1":23.300478099300001},"geometry":{"type":"MultiLineString","coordinates":[[[3.828409809755044,7.241074322150638],[3.828431411381782,7.24112652645904],[3.828516976797634,7.240998086211949]]]}},
{"type":"Feature","properties":{"OBJECTID_1":8,"OBJECTID":8.0,"SHAPE_Leng":22.778628313199999,"walk":1.0,"drive":0.0,"Shape_Le_1":22.778628313199999},"geometry":{"type":"MultiLineString","coordinates":[[[3.828516976797634,7.240998086211949],[3.82859909173083,7.240945837835119],[3.82868256471823,7.240875915857713]]]}},
{"type":"Feature","properties":{"OBJECTID_1":9,"OBJECTID":9.0,"SHAPE_Leng":15.1843571211,"walk":1.0,"drive":0.0,"Shape_Le_1":15.1843571211},"geometry":{"type":"MultiLineString","coordinates":[[[3.82868256471823,7.240875915857713],[3.828589007192071,7.240775247661395]]]}},
{"type":"Feature","properties":{"OBJECTID_1":11,"OBJECTID":11.0,"SHAPE_Leng":134.529350628,"walk":1.0,"drive":0.0,"Shape_Le_1":134.529350628},"geometry":{"type":"MultiLineString","coordinates":[[[3.82690996143321,7.240678790203743],[3.826820240554974,7.240760319765387],[3.82667056340336,7.240622783622094],[3.826627083881832,7.240595712346436],[3.826579192760571,7.240551918627177],[3.826462205552894,7.240464176107762],[3.826354525198382,7.240316306609874],[3.826251442194749,7.240218507025269],[3.826139884182254,7.240110322903933],[3.82605112271865,7.239988912553828]]]}},
{"type":"Feature","properties":{"OBJECTID_1":12,"OBJECTID":12.0,"SHAPE_Leng":11.978533413799999,"walk":1.0,"drive":0.0,"Shape_Le_1":11.978533413799999},"geometry":{"type":"MultiLineString","coordinates":[[[3.82605112271865,7.239988912553828],[3.825998951689038,7.239965351043497],[3.825963410638961,7.239928494928367]]]}},
{"type":"Feature","properties":{"OBJECTID_1":14,"OBJECTID":13.0,"SHAPE_Leng":98.367300761699994,"walk":1.0,"drive":0.0,"Shape_Le_1":98.367300761699994},"geometry":{"type":"MultiLineString","coordinates":[[[3.82659056893302,7.240341923002332],[3.826540103269586,7.240393912768548],[3.826672984226496,7.240531121291753],[3.826800794954706,7.24065596819423],[3.826852462119243,7.240602746103767],[3.826762140531448,7.240525032213542],[3.826742283728704,7.240477863574177],[3.82659056893302,7.240341923002332]]]}},
{"type":"Feature","properties":{"OBJECTID_1":16,"OBJECTID":14.0,"SHAPE_Leng":18.410933952499999,"walk":1.0,"drive":0.0,"Shape_Le_1":18.410933952499999},"geometry":{"type":"MultiLineString","coordinates":[[[3.826627083881832,7.240595712346436],[3.826672984226496,7.240531121291753],[3.826742283728704,7.240477863574177]]]}},
{"type":"Feature","properties":{"OBJECTID_1":17,"OBJECTID":15.0,"SHAPE_Leng":17.155192790099999,"walk":1.0,"drive":0.0,"Shape_Le_1":17.155192790099999},"geometry":{"type":"MultiLineString","coordinates":[[[3.826514275708346,7.240702410657202],[3.826562910054149,7.24065743586336],[3.826627083881832,7.240595712346436]]]}},
{"type":"Feature","properties":{"OBJECTID_1":18,"OBJECTID":16.0,"SHAPE_Leng":24.8204293828,"walk":1.0,"drive":0.0,"Shape_Le_1":24.8204293828},"geometry":{"type":"MultiLineString","coordinates":[[[3.826385105718286,7.240555796740782],[3.826462205552894,7.240464176107762],[3.826540103269586,7.240393912768548]]]}},
{"type":"Feature","properties":{"OBJECTID_1":19,"OBJECTID":17.0,"SHAPE_Leng":329.86986257900003,"walk":1.0,"drive":0.0,"Shape_Le_1":329.86986257900003},"geometry":{"type":"MultiLineString","coordinates":[[[3.826324928656764,7.240874086645852],[3.826276620967587,7.240839795375296],[3.826159947339969,7.240727289841457],[3.825914759888216,7.240521034960147],[3.825752448283377,7.24035093694697],[3.825671200199614,7.240259447167928],[3.825591644773022,7.240198206962877],[3.825533384041061,7.240183952848815],[3.825427002654379,7.240196351017811],[3.825344903869945,7.24022526645193],[3.825181748358797,7.240249971855886],[3.825102090760669,7.240251587858753],[3.824995693962004,7.240235591125405],[3.824901940299909,7.240233857965546],[3.824750215844312,7.240219414923105],[3.824569949004205,7.240238807351264],[3.824449261040961,7.240202797269574],[3.824366195157566,7.240177031182573],[3.824300592019521,7.240161086132168],[3.824226268040115,7.24014303310538],[3.824133169998158,7.240123753186883],[3.824075965250572,7.240096934425095],[3.824019788619557,7.240069657928392],[3.823969284053331,7.240037002974485],[3.823904563920133,7.239984549905096],[3.823862444762384,7.239949834695751],[3.823825201438828,7.239914693685639],[3.823792321768346,7.23985792732234],[3.823768255802712,7.239802031413475]]]}},
{"type":"Feature","properties":{"OBJECTID_1":20,"OBJECTID":18.0,"SHAPE_Leng":8.3488539609100005,"walk":1.0,"drive":0.0,"Shape_Le_1":8.3488539609100005},"geometry":{"type":"MultiLineString","coordinates":[[[3.823366885239052,7.239617567371987],[3.823441957886393,7.239608496076116]]]}},
{"type":"Feature","properties":{"OBJECTID_1":21,"OBJECTID":19.0,"SHAPE_Leng":42.823360771899999,"walk":1.0,"drive":0.0,"Shape_Le_1":42.823360771899999},"geometry":{"type":"MultiLineString","coordinates":[[[3.825963410638961,7.239928494928367],[3.825812283426195,7.239776257590334],[3.825741514645736,7.239832441162638],[3.825691039167237,7.239897990150603]]]}},
{"type":"Feature","properties":{"OBJECTID_1":23,"OBJECTID":21.0,"SHAPE_Leng":34.895156741800001,"walk":1.0,"drive":0.0,"Shape_Le_1":34.895156741800001},"geometry":{"type":"MultiLineString","coordinates":[[[3.827194297111956,7.240796037050704],[3.827258436039422,7.240820072318614],[3.827354608159899,7.240826778019251],[3.827503655798868,7.240851882693062]]]}},
{"type":"Feature","properties":{"OBJECTID_1":24,"OBJECTID":22.0,"SHAPE_Leng":105.555158472,"walk":1.0,"drive":0.0,"Shape_Le_1":105.555158472},"geometry":{"type":"MultiLineString","coordinates":[[[3.823759326735296,7.240506769305043],[3.823806730624145,7.240487349013831],[3.823851561951296,7.240459333426906],[3.8239233077812,7.240377357548629],[3.824022273148815,7.24023933324152],[3.824084013207851,7.240190401313868],[3.824135293603361,7.240188393661629],[3.824202403443577,7.240192100892806],[3.824309827922703,7.240226367675072],[3.824477308030838,7.24025127267213],[3.824569949004205,7.240238807351264]]]}},
{"type":"Feature","properties":{"OBJECTID_1":26,"OBJECTID":24.0,"SHAPE_Leng":79.937733878399996,"walk":1.0,"drive":0.0,"Shape_Le_1":79.937733878399996},"geometry":{"type":"MultiLineString","coordinates":[[[3.823759326735296,7.240506769305043],[3.823810856260461,7.240560163418451],[3.823845362442273,7.240656692087105],[3.823834039150716,7.240755789253259],[3.823829833578908,7.240816104129214],[3.823810573057279,7.240898703183166],[3.823869373374857,7.240946220277396],[3.823948050661242,7.240986281802643],[3.824003834225469,7.241052429716016],[3.824032237373884,7.241095015326459]]]}},
{"type":"Feature","properties":{"OBJECTID_1":27,"OBJECTID":25.0,"SHAPE_Leng":102.388040201,"walk":1.0,"drive":0.0,"Shape_Le_1":102.388040201},"geometry":{"type":"MultiLineString","coordinates":[[[3.823825201438828,7.239914693685639],[3.823748490146145,7.239900751305854],[3.823661282109741,7.239914311014435],[3.823587491162905,7.23992593071146],[3.823519472596637,7.23994902886314],[3.823467765994569,7.239980711919573],[3.823269736279064,7.2399806069845],[3.823221014546278,7.239922613781189],[3.823143437759688,7.239908395182285],[3.823105846729804,7.239865289742726],[3.823000575575402,7.239767174904244]]]}},
{"type":"Feature","properties":{"OBJECTID_1":28,"OBJECTID":26.0,"SHAPE_Leng":33.366643342899998,"walk":1.0,"drive":0.0,"Shape_Le_1":33.366643342899998},"geometry":{"type":"MultiLineString","coordinates":[[[3.823143437759688,7.239908395182285],[3.822915633942146,7.239888282199955],[3.822842649019894,7.239879373685036]]]}},
{"type":"Feature","properties":{"OBJECTID_1":29,"OBJECTID":27.0,"SHAPE_Leng":42.167469121300002,"walk":1.0,"drive":0.0,"Shape_Le_1":42.167469121300002},"geometry":{"type":"MultiLineString","coordinates":[[[3.822277658197164,7.239673985773141],[3.822351920345989,7.239722975733381],[3.822390330863051,7.239760000644999],[3.822451887648786,7.239785815017635],[3.82255260922871,7.239792029641173],[3.822623284652636,7.239805046981814]]]}},
{"type":"Feature","properties":{"OBJECTID_1":30,"OBJECTID":28.0,"SHAPE_Leng":156.12644849599999,"walk":1.0,"drive":0.0,"Shape_Le_1":156.12644849599999},"geometry":{"type":"MultiLineString","coordinates":[[[3.822277658197164,7.239673985773141],[3.82235833613722,7.239626639813514],[3.822430757410314,7.23958642442912],[3.822476185640434,7.239528905944487],[3.822528813316701,7.239476161948021],[3.822620923874128,7.239374445923866],[3.82273431595487,7.239263678123493],[3.822824731367337,7.239168746138231],[3.822933803244711,7.239053677086217],[3.82327321761355,7.238681687328137]]]}},
{"type":"Feature","properties":{"OBJECTID_1":31,"OBJECTID":29.0,"SHAPE_Leng":7.3156370639599997,"walk":1.0,"drive":0.0,"Shape_Le_1":7.3156370639599997},"geometry":{"type":"MultiLineString","coordinates":[[[3.82327321761355,7.238681687328137],[3.823319661572072,7.238728882264857]]]}},
{"type":"Feature","properties":{"OBJECTID_1":32,"OBJECTID":30.0,"SHAPE_Leng":70.513053531200001,"walk":1.0,"drive":0.0,"Shape_Le_1":70.513053531200001},"geometry":{"type":"MultiLineString","coordinates":[[[3.822528813316701,7.239476161948021],[3.822583041602485,7.239516483194476],[3.822626240600356,7.239550867350397],[3.822688630556603,7.239602114620665],[3.822718436991116,7.239645469338937],[3.822754454840231,7.23968417276369],[3.822830031244408,7.23973213908865],[3.822884775365157,7.239700724674513],[3.822924012922774,7.239667819635455],[3.823000575575402,7.239767174904244]]]}},
{"type":"Feature","properties":{"OBJECTID_1":34,"OBJECTID":32.0,"SHAPE_Leng":107.754110555,"walk":1.0,"drive":0.0,"Shape_Le_1":107.754110555},"geometry":{"type":"MultiLineString","coordinates":[[[3.82139036711436,7.239105865071001],[3.821409799077407,7.239181883697522],[3.821514152689213,7.239294259097633],[3.821600593764711,7.239386431398744],[3.82166543417559,7.23946097965796],[3.82173312439149,7.239521164785443],[3.821777777265867,7.239564160828569],[3.821823845883439,7.239595668110924],[3.821892887789383,7.239608466013479],[3.822054394036889,7.239705834693479],[3.822105622848584,7.239704863016421]]]}},
{"type":"Feature","properties":{"OBJECTID_1":35,"OBJECTID":33.0,"SHAPE_Leng":70.618168537700001,"walk":1.0,"drive":0.0,"Shape_Le_1":70.078693010099997},"geometry":{"type":"MultiLineString","coordinates":[[[3.82139036711436,7.239105865071001],[3.821361190432119,7.239165701309112],[3.821292699326234,7.239141400745105],[3.82123543729203,7.239194936264368],[3.821160782826648,7.239309029343374],[3.821048808018825,7.2394133967351],[3.820926083823028,7.239447243607032]]]}},
{"type":"Feature","properties":{"OBJECTID_1":36,"OBJECTID":34.0,"SHAPE_Leng":22.011286917100001,"walk":1.0,"drive":0.0,"Shape_Le_1":22.011286917100001},"geometry":{"type":"MultiLineString","coordinates":[[[3.821228120702802,7.239138915900969],[3.821184418318227,7.23919021003507],[3.82114481153543,7.239260411611231],[3.821160782826648,7.239309029343374]]]}},
{"type":"Feature","properties":{"OBJECTID_1":37,"OBJECTID":35.0,"SHAPE_Leng":18.483348027400002,"walk":1.0,"drive":0.0,"Shape_Le_1":18.61154774},"geometry":{"type":"MultiLineString","coordinates":[[[3.82139036711436,7.239105865071001],[3.821292699326234,7.239141400745105],[3.821228120702802,7.239138915900969]]]}},
{"type":"Feature","properties":{"OBJECTID_1":39,"OBJECTID":37.0,"SHAPE_Leng":43.050971285899998,"walk":1.0,"drive":0.0,"Shape_Le_1":43.248547688599999},"geometry":{"type":"MultiLineString","coordinates":[[[3.821361190432119,7.239165701309112],[3.821409799077407,7.239181883697522],[3.821410891296885,7.239244896189182],[3.821427208744606,7.239323122881576],[3.821438474341817,7.239390588847773],[3.821426649549706,7.239458601183756],[3.821397460584962,7.23951065425512]]]}},
{"type":"Feature","properties":{"OBJECTID_1":40,"OBJECTID":38.0,"SHAPE_Leng":43.000407837399997,"walk":1.0,"drive":0.0,"Shape_Le_1":41.216041308900003},"geometry":{"type":"MultiLineString","coordinates":[[[3.821489965309115,7.239477949896495],[3.821426649549706,7.239458601183756],[3.821320071887894,7.239458662312916],[3.82124969479237,7.239465819920953],[3.821172787663815,7.239481757486132],[3.821138702451892,7.239519960679551]]]}},
{"type":"Feature","properties":{"OBJECTID_1":41,"OBJECTID":39.0,"SHAPE_Leng":10.2977240519,"walk":1.0,"drive":0.0,"Shape_Le_1":10.2977240519},"geometry":{"type":"MultiLineString","coordinates":[[[3.821397460584962,7.23951065425512],[3.821320071887894,7.239458662312916]]]}},
{"type":"Feature","properties":{"OBJECTID_1":42,"OBJECTID":40.0,"SHAPE_Leng":6.8619198275800004,"walk":1.0,"drive":0.0,"Shape_Le_1":6.8619198275800004},"geometry":{"type":"MultiLineString","coordinates":[[[3.821397460584962,7.23951065425512],[3.821336126342426,7.239520690855294]]]}},
{"type":"Feature","properties":{"OBJECTID_1":43,"OBJECTID":41.0,"SHAPE_Leng":7.0831682886899996,"walk":1.0,"drive":0.0,"Shape_Le_1":7.0831682886899996},"geometry":{"type":"MultiLineString","coordinates":[[[3.821320071887894,7.239458662312916],[3.821336126342426,7.239520690855294]]]}},
{"type":"Feature","properties":{"OBJECTID_1":44,"OBJECTID":42.0,"SHAPE_Leng":23.278930611900002,"walk":1.0,"drive":0.0,"Shape_Le_1":23.278930611900002},"geometry":{"type":"MultiLineString","coordinates":[[[3.821201256271092,7.239544206846808],[3.821172787663815,7.239481757486132],[3.821096672996454,7.23944657327309],[3.821048808018825,7.2394133967351]]]}},
{"type":"Feature","properties":{"OBJECTID_1":45,"OBJECTID":43.0,"SHAPE_Leng":19.042426336799998,"walk":1.0,"drive":0.0,"Shape_Le_1":19.042426336799998},"geometry":{"type":"MultiLineString","coordinates":[[[3.820826852331304,7.239633936059858],[3.820881009673442,7.239598012205964],[3.820931278150164,7.239572866104325],[3.820973192314202,7.239543435086264]]]}},
{"type":"Feature","properties":{"OBJECTID_1":48,"OBJECTID":44.0,"SHAPE_Leng":16.025845798500001,"walk":1.0,"drive":0.0,"Shape_Le_1":16.025845798500001},"geometry":{"type":"MultiLineString","coordinates":[[[3.821005958871909,7.239696121952137],[3.821010285690442,7.239623504782402],[3.821030463764407,7.239554165865966]]]}},
{"type":"Feature","properties":{"OBJECTID_1":49,"OBJECTID":45.0,"SHAPE_Leng":20.5394220021,"walk":1.0,"drive":0.0,"Shape_Le_1":20.5394220021},"geometry":{"type":"MultiLineString","coordinates":[[[3.821989868147719,7.238253119266479],[3.821907500932952,7.238247799363037],[3.821855975777714,7.238239084377683],[3.82180589441206,7.238249895763411]]]}},
{"type":"Feature","properties":{"OBJECTID_1":50,"OBJECTID":46.0,"SHAPE_Leng":57.953283987600003,"walk":1.0,"drive":0.0,"Shape_Le_1":57.953283987600003},"geometry":{"type":"MultiLineString","coordinates":[[[3.823269736279064,7.2399806069845],[3.823465011432545,7.240188350293431],[3.823522605055307,7.240231322729618],[3.823585663824329,7.240329095012482],[3.823632844823272,7.240309139682128]]]}},
{"type":"Feature","properties":{"OBJECTID_1":51,"OBJECTID":47.0,"SHAPE_Leng":7.3048318696300001,"walk":1.0,"drive":0.0,"Shape_Le_1":7.3048318696300001},"geometry":{"type":"MultiLineString","coordinates":[[[3.826009634849159,7.240040381265216],[3.82605112271865,7.239988912553828]]]}},
{"type":"Feature","properties":{"OBJECTID_1":54,"OBJECTID":50.0,"SHAPE_Leng":195.086934359,"walk":1.0,"drive":0.0,"Shape_Le_1":195.35058765700001},"geometry":{"type":"MultiLineString","coordinates":[[[3.823801847848661,7.243864067913456],[3.823791304386666,7.243696252380695],[3.823090101963715,7.242912567194607],[3.822678584203692,7.242550257469822]]]}},
{"type":"Feature","properties":{"OBJECTID_1":55,"OBJECTID":51.0,"SHAPE_Leng":59.462412526400001,"walk":1.0,"drive":0.0,"Shape_Le_1":59.462412526400001},"geometry":{"type":"MultiLineString","coordinates":[[[3.825305911452813,7.241097836197183],[3.825464890931887,7.241119027870579],[3.825542815058929,7.241139827425764],[3.825674654367295,7.24115753619191],[3.825758657163863,7.241226186963331],[3.825773732725514,7.241280005131869]]]}},
{"type":"Feature","properties":{"OBJECTID_1":56,"OBJECTID":52.0,"SHAPE_Leng":7.3593003907899996,"walk":1.0,"drive":0.0,"Shape_Le_1":7.3593003907899996},"geometry":{"type":"MultiLineString","coordinates":[[[3.827899936321854,7.240737236434266],[3.827953614773097,7.24069777156105]]]}},
{"type":"Feature","properties":{"OBJECTID_1":57,"OBJECTID":53.0,"SHAPE_Leng":6.2675055799799999,"walk":1.0,"drive":0.0,"Shape_Le_1":6.2675055799799999},"geometry":{"type":"MultiLineString","coordinates":[[[3.821048808018825,7.2394133967351],[3.821011582788162,7.239370597059697]]]}},
{"type":"Feature","properties":{"OBJECTID_1":58,"OBJECTID":55.0,"SHAPE_Leng":12.534185638,"walk":1.0,"drive":0.0,"Shape_Le_1":12.534185638},"geometry":{"type":"MultiLineString","coordinates":[[[3.821138702451892,7.239519960679551],[3.821030463764407,7.239554165865966]]]}},
{"type":"Feature","properties":{"OBJECTID_1":60,"OBJECTID":58.0,"SHAPE_Leng":6.4333895930700002,"walk":1.0,"drive":0.0,"Shape_Le_1":6.4333895930700002},"geometry":{"type":"MultiLineString","coordinates":[[[3.820973192314202,7.239543435086264],[3.821030463764407,7.239554165865966]]]}},
{"type":"Feature","properties":{"OBJECTID_1":61,"OBJECTID":59.0,"SHAPE_Leng":18.587653120700001,"walk":1.0,"drive":0.0,"Shape_Le_1":18.587653120700001},"geometry":{"type":"MultiLineString","coordinates":[[[3.8217460380612,7.23980204911754],[3.821694953378711,7.239798088276316],[3.821653113197121,7.239747268683669],[3.821611290666875,7.23971770833842]]]}},
{"type":"Feature","properties":{"OBJECTID_1":62,"OBJECTID":60.0,"SHAPE_Leng":25.8461682943,"walk":1.0,"drive":0.0,"Shape_Le_1":25.8461682943},"geometry":{"type":"MultiLineString","coordinates":[[[3.821616518267243,7.239839584320826],[3.821559122966333,7.239811991316827],[3.821475514862383,7.239778298647109],[3.821397920558595,7.239757876736521]]]}},
{"type":"Feature","properties":{"OBJECTID_1":66,"OBJECTID":64.0,"SHAPE_Leng":8.2388649802299998,"walk":1.0,"drive":0.0,"Shape_Le_1":8.2388649802299998},"geometry":{"type":"MultiLineString","coordinates":[[[3.822924012922774,7.239667819635455],[3.822856281640192,7.239636538859079]]]}},
{"type":"Feature","properties":{"OBJECTID_1":67,"OBJECTID":65.0,"SHAPE_Leng":17.3362016094,"walk":1.0,"drive":0.0,"Shape_Le_1":17.3362016094},"geometry":{"type":"MultiLineString","coordinates":[[[3.825087583771245,7.241341668865451],[3.824944447008295,7.241277195371996]]]}},
{"type":"Feature","properties":{"OBJECTID_1":68,"OBJECTID":66.0,"SHAPE_Leng":11.5782877302,"walk":1.0,"drive":0.0,"Shape_Le_1":11.5782877302},"geometry":{"type":"MultiLineString","coordinates":[[[3.824784585671033,7.241352925447731],[3.824852414226762,7.241273054052963]]]}},
{"type":"Feature","properties":{"OBJECTID_1":69,"OBJECTID":67.0,"SHAPE_Leng":7.1133655342299997,"walk":1.0,"drive":0.0,"Shape_Le_1":7.1133655342299997},"geometry":{"type":"MultiLineString","coordinates":[[[3.827989298837635,7.240751342301953],[3.827953614773097,7.24069777156105]]]}},
{"type":"Feature","properties":{"OBJECTID_1":70,"OBJECTID":68.0,"SHAPE_Leng":11.505030104899999,"walk":1.0,"drive":0.0,"Shape_Le_1":11.505030104899999},"geometry":{"type":"MultiLineString","coordinates":[[[3.828058090035761,7.240814254133798],[3.828077244725353,7.24076493787993],[3.828113103360763,7.240801485696131]]]}}
]
}
