{
"type": "FeatureCollection",
"name": "LandMarks",
"crs": { "type": "name", "properties": { "name": "urn:ogc:def:crs:OGC:1.3:CRS84" } },
"features": [
{"type":"Feature","properties":{"OBJECTID":3,"Name":"MAIN GATE"},"geometry":{"type":"Point","coordinates":[3.823078987000031,7.241971846000069]}},
{"type":"Feature","properties":{"OBJECTID":6,"Name":"SECOND GATE"},"geometry":{"type":"Point","coordinates":[3.82836640000005,7.242401671000039]}},
{"type":"Feature","properties":{"OBJECTID":4,"Name":"BASKE BALL COURT"},"geometry":{"type":"Point","coordinates":[3.823542149422684,7.241765664018372]}},
{"type":"Feature","properties":{"OBJECTID":3,"Name":"FOOTBALL PITCH"},"geometry":{"type":"Point","coordinates":[3.826665673201195,7.241617699878877]}}
]
}
