{
"type": "FeatureCollection",
"name": "Roads",
"crs": { "type": "name", "properties": { "name": "urn:ogc:def:crs:OGC:1.3:CRS84" } },
"features": [
{"type":"Feature","properties":{"OBJECTID_1":1,"OBJECTID":1.0,"SHAPE_Leng":487.21377841100002,"walk":1.0,"drive":1.0,"Shape_Le_1":0.00440778605},"geometry":{"type":"MultiLineString","coordinates":[[[3.822028351000029,7.237365674000046],[3.82198478600003,7.237658675000034],[3.821971210000072,7.23788195000003],[3.82198986800006,7.238253119000035],[3.82199358400004,7.238327036000044],[3.822072055000035,7.238848841000049],[3.82217784900007,7.239372151000055],[3.822277658000075,7.239673986000071],[3.822512836000044,7.240117611000073],[3.822793894000029,7.240486845000021],[3.823013550000042,7.240694652000059],[3.823072978000027,7.240737687000035],[3.82343468800002,7.240999616000067],[3.823548652000056,7.241071204000036],[3.823668606000069,7.241142781000065]]]}},
{"type":"Feature","properties":{"OBJECTID_1":2,"OBJECTID":2.0,"SHAPE_Leng":82.568287210099996,"walk":1.0,"drive":1.0,"Shape_Le_1":0.00073465099},"geometry":{"type":"MultiLineString","coordinates":[[[3.823815281000066,7.241326115000049],[3.823894683000049,7.241303894000055],[3.823938811000062,7.241251042000044],[3.823949391000042,7.241200978000052],[3.823939490000043,7.241165587000069],[3.823902610000061,7.241115802000024],[3.82382216600007,7.241092966000053],[3.823751552000033,7.241118135000022],[3.82371732200005,7.241162699000029],[3.823708823000061,7.241213157000061],[3.823720171000048,7.241260246000024],[3.823752716000058,7.241299766000054],[3.823815281000066,7.241326115000049]]]}},
{"type":"Feature","properties":{"OBJECTID_1":3,"OBJECTID":3.0,"SHAPE_Leng":5.8118224107499996,"walk":1.0,"drive":1.0,"Shape_Le_1":5.263056e-05},"geometry":{"type":"MultiLineString","coordinates":[[[3.823668606000069,7.241142781000065],[3.82371732200005,7.241162699000029]]]}},
{"type":"Feature","properties":{"OBJECTID_1":4,"OBJECTID":4.0,"SHAPE_Leng":585.33845527999995,"walk":1.0,"drive":1.0,"Shape_Le_1":0.00529518262},"geometry":{"type":"MultiLineString","coordinates":[[[3.823938811000062,7.241251042000044],[3.82424398400002,7.24136211900003],[3.824899311000024,7.241628964000029],[3.825314261000074,7.241824450000024],[3.825578101000076,7.241948416000071],[3.825734565000062,7.241998688000024],[3.825871175000032,7.241938431000051],[3.826133954000056,7.241742673000033],[3.826393795000058,7.241512459000035],[3.826745303000052,7.241154326000071],[3.826797375000069,7.241101272000037],[3.826862237000057,7.241048422000063],[3.827194297000062,7.240796037000052],[3.827516929000069,7.240550818000031],[3.827626860000066,7.240466274000028],[3.827794532000041,7.240337323000062],[3.827945226000054,7.24018129500007],[3.82816269500006,7.23984585900007],[3.828191326000024,7.239776405000043]]]}},
{"type":"Feature","properties":{"OBJECTID_1":5,"OBJECTID":5.0,"SHAPE_Leng":743.74011001600002,"walk":1.0,"drive":1.0,"Shape_Le_1":0.00672781255},"geometry":{"type":"MultiLineString","coordinates":[[[3.828501260000053,7.242548961000068],[3.828303191000032,7.242353083000069],[3.82793767000004,7.241994896000051],[3.827561356000047,7.241696916000024],[3.827076588000068,7.24137883800006],[3.826745303000052,7.241154326000071],[3.826637726000058,7.24105045400006],[3.826442268000051,7.240861729000073],[3.826217707000069,7.240644903000032],[3.825627668000038,7.240039610000053],[3.825420641000051,7.239858106000042],[3.825231651000024,7.239711868000029],[3.825024770000027,7.239610534000064],[3.824964804000047,7.239580729000068],[3.824832970000045,7.239566010000033],[3.824644052000053,7.239458661000072],[3.824455378000039,7.239320698000029],[3.824239365000039,7.239139210000076],[3.824078566000026,7.239010271000041],[3.823963414000048,7.238943471000027],[3.823775100000034,7.238773120000076],[3.823552384000038,7.238595473000032],[3.823457382000072,7.238539167000056],[3.823273218000054,7.238681687000053]]]}},
{"type":"Feature","properties":{"OBJECTID_1":6,"OBJECTID":6.0,"SHAPE_Leng":206.740377792,"walk":1.0,"drive":1.0,"Shape_Le_1":0.00187974546},"geometry":{"type":"MultiLineString","coordinates":[[[3.823963414000048,7.238943471000027],[3.82391950300007,7.238969839000049],[3.823809685000072,7.239095570000075],[3.823502520000034,7.239362064000034],[3.823375311000063,7.239481195000053],[3.823361523000074,7.239523633000033],[3.823173502000031,7.239650070000039],[3.823000576000027,7.239767175000054],[3.822958168000071,7.239795892000075],[3.822842649000052,7.239879374000054],[3.822794591000047,7.239913865000062],[3.822614682000051,7.240043963000062],[3.822512836000044,7.240117611000073]]]}},
{"type":"Feature","properties":{"OBJECTID_1":7,"OBJECTID":7.0,"SHAPE_Leng":52.614264118800001,"walk":1.0,"drive":1.0,"Shape_Le_1":0.00047873723},"geometry":{"type":"MultiLineString","coordinates":[[[3.822842649000052,7.239879374000054],[3.822785870000075,7.239862188000075],[3.822700233000035,7.239816395000048],[3.82262328500002,7.239805047000061],[3.822596110000063,7.23988478800004],[3.822607772000026,7.239973074000034],[3.822614682000051,7.240043963000062]]]}},
{"type":"Feature","properties":{"OBJECTID_1":8,"OBJECTID":8.0,"SHAPE_Leng":486.03022422800001,"walk":1.0,"drive":1.0,"Shape_Le_1":0.00440029833},"geometry":{"type":"MultiLineString","coordinates":[[[3.823720171000048,7.241260246000024],[3.823466404000044,7.241523635000021],[3.823275306000028,7.241743700000029],[3.822878084000024,7.242195978000041],[3.822694734000038,7.242362378000053],[3.822646839000072,7.242381610000052],[3.822591233000026,7.242377881000039],[3.822499159000074,7.242351244000076],[3.822380158000044,7.24227679300003],[3.821996699000067,7.241958160000024],[3.821754755000029,7.241749914000025],[3.821654915000067,7.241669684000044],[3.821452842000042,7.241598829000054],[3.820946651000042,7.241571024000052],[3.82058235300002,7.24155445100007],[3.820429776000026,7.241527699000073],[3.820305956000027,7.241438897000023],[3.820136311000056,7.241313313000035]]]}},
{"type":"Feature","properties":{"OBJECTID_1":9,"OBJECTID":9.0,"SHAPE_Leng":573.44294031899994,"walk":1.0,"drive":1.0,"Shape_Le_1":0.00519846423},"geometry":{"type":"MultiLineString","coordinates":[[[3.823815281000066,7.241326115000049],[3.823381380000058,7.241748931000075],[3.822835381000061,7.242380525000044],[3.822728985000026,7.242517725000027],[3.82267872400007,7.242553714000053],[3.822627208000029,7.242558593000069],[3.822568452000041,7.242535964000069],[3.822492870000076,7.242484648000072],[3.822359695000046,7.24239155600003],[3.821917393000035,7.242007132000026],[3.821679632000041,7.241804096000067],[3.821587235000038,7.241731112000025],[3.821526059000064,7.241695325000023],[3.821470903000034,7.241675083000075],[3.821397797000031,7.241668036000021],[3.82124570600007,7.241716173000043],[3.821141643000033,7.241818070000022],[3.821103995000044,7.241893761000028],[3.821082627000067,7.242004363000035],[3.821127474000036,7.242155051000054],[3.821203836000052,7.242239631000075],[3.821310412000059,7.242334207000056],[3.821510599000021,7.242510461000052],[3.821833929000036,7.242841727000041],[3.822033695000073,7.243050049000033]]]}},
{"type":"Feature","properties":{"OBJECTID_1":10,"OBJECTID":10.0,"SHAPE_Leng":214.366530391,"walk":1.0,"drive":1.0,"Shape_Le_1":0.0019494787},"geometry":{"type":"MultiLineString","coordinates":[[[3.822277658000075,7.239673986000071],[3.822105623000027,7.239704863000043],[3.82205439400002,7.239705835000052],[3.821746038000072,7.239802049000048],[3.821694953000076,7.239798088000043],[3.821616518000042,7.239839584000038],[3.821530455000072,7.239864736000072],[3.821252666000021,7.239977715000066],[3.821191773000066,7.239965381000047],[3.82114561100002,7.239943178000033],[3.821064364000051,7.239879457000029],[3.820987298000034,7.239802776000033],[3.820950338000046,7.239751769000065],[3.820900291000044,7.239696615000071],[3.820826852000039,7.239633936000075],[3.820786904000045,7.239601895000021],[3.82075951500002,7.239572467000073],[3.820686086000023,7.239519471000051],[3.820556663000048,7.239512525000066]]]}},
{"type":"Feature","properties":{"OBJECTID_1":11,"OBJECTID":11.0,"SHAPE_Leng":27.829014214299999,"walk":1.0,"drive":1.0,"Shape_Le_1":0.00025449708},"geometry":{"type":"MultiLineString","coordinates":[[[3.82075951500002,7.239572467000073],[3.820775105000052,7.239523726000073],[3.820772302000023,7.23948772600005],[3.820810236000057,7.239453329000071],[3.820870011000068,7.239450217000069],[3.820926084000064,7.239447244000075]]]}},
{"type":"Feature","properties":{"OBJECTID_1":12,"OBJECTID":12.0,"SHAPE_Leng":48.306877226499999,"walk":1.0,"drive":1.0,"Shape_Le_1":0.00043697209},"geometry":{"type":"MultiLineString","coordinates":[[[3.820772302000023,7.23948772600005],[3.820759989000067,7.239414153000041],[3.820739368000034,7.239275387000021],[3.820715174000043,7.239148594000028],[3.820673984000052,7.239065207000067]]]}},
{"type":"Feature","properties":{"OBJECTID_1":13,"OBJECTID":13.0,"SHAPE_Leng":38.151323010600002,"walk":1.0,"drive":1.0,"Shape_Le_1":0.00034618902},"geometry":{"type":"MultiLineString","coordinates":[[[3.821252666000021,7.239977715000066],[3.821187271000042,7.240017881000028],[3.821104823000042,7.240098032000049],[3.820997661000035,7.240209268000058]]]}},
{"type":"Feature","properties":{"OBJECTID_1":14,"OBJECTID":14.0,"SHAPE_Leng":63.602877950600003,"walk":1.0,"drive":1.0,"Shape_Le_1":0.0005828758},"geometry":{"type":"MultiLineString","coordinates":[[[3.821252666000021,7.239977715000066],[3.821187271000042,7.240017881000028],[3.821075919000066,7.240017675000047],[3.82097240500002,7.240025519000028],[3.820889973000021,7.240029497000023],[3.820790342000066,7.240064138000037],[3.820717620000039,7.240137021000066]]]}},
{"type":"Feature","properties":{"OBJECTID_1":15,"OBJECTID":15.0,"SHAPE_Leng":42.352380003199997,"walk":1.0,"drive":1.0,"Shape_Le_1":0.0003824043},"geometry":{"type":"MultiLineString","coordinates":[[[3.820900291000044,7.239696615000071],[3.820825362000051,7.239685082000051],[3.820744961000059,7.239707002000046],[3.820671684000047,7.239737288000072],[3.820527908000031,7.239744727000073]]]}},
{"type":"Feature","properties":{"OBJECTID_1":16,"OBJECTID":16.0,"SHAPE_Leng":53.745025959300001,"walk":1.0,"drive":1.0,"Shape_Le_1":0.0005130481},"geometry":{"type":"MultiLineString","coordinates":[[[3.821187271000042,7.240017881000028],[3.821054557000025,7.239954853000029],[3.820981141000061,7.239909037000075],[3.820910654000045,7.239891933000024],[3.820703598000023,7.239892307000048]]]}},
{"type":"Feature","properties":{"OBJECTID_1":17,"OBJECTID":17.0,"SHAPE_Leng":33.098182124499999,"walk":1.0,"drive":1.0,"Shape_Le_1":0.00030239164},"geometry":{"type":"MultiLineString","coordinates":[[[3.820950338000046,7.239751769000065],[3.821005959000047,7.239696122000055],[3.821099070000059,7.239603076000037],[3.821138702000042,7.239519961000042]]]}},
{"type":"Feature","properties":{"OBJECTID_1":18,"OBJECTID":18.0,"SHAPE_Leng":51.277723063899998,"walk":1.0,"drive":1.0,"Shape_Le_1":0.00046881108},"geometry":{"type":"MultiLineString","coordinates":[[[3.821191773000066,7.239965381000047],[3.821152297000026,7.239881303000061],[3.821130596000046,7.239808111000059],[3.821114621000049,7.239720551000062],[3.821099070000059,7.239603076000037],[3.821138702000042,7.239519961000042]]]}},
{"type":"Feature","properties":{"OBJECTID_1":19,"OBJECTID":19.0,"SHAPE_Leng":91.617258403299999,"walk":1.0,"drive":1.0,"Shape_Le_1":0.00084002301},"geometry":{"type":"MultiLineString","coordinates":[[[3.823072978000027,7.240737687000035],[3.823171028000047,7.240660995000042],[3.823262886000066,7.240568932000031],[3.823383468000031,7.240457672000048],[3.823456244000056,7.240415420000033],[3.823515663000023,7.24040765500007],[3.823575124000058,7.240422863000049],[3.823645594000027,7.240429916000039],[3.823697952000032,7.240493478000076],[3.823759327000062,7.240506769000035]]]}},
{"type":"Feature","properties":{"OBJECTID_1":21,"OBJECTID":21.0,"SHAPE_Leng":180.36388950899999,"walk":1.0,"drive":1.0,"Shape_Le_1":0.00166915189},"geometry":{"type":"MultiLineString","coordinates":[[[3.823902610000061,7.241115802000024],[3.824003834000052,7.241052430000025],[3.82403223700004,7.241095015000042],[3.824084369000047,7.241110930000048],[3.824195359000043,7.241194489000065],[3.824315314000046,7.241266066000037],[3.824462229000062,7.241337595000061],[3.824555142000065,7.241364349000037],[3.824784586000021,7.241352925000058],[3.824862292000034,7.241385810000054],[3.824919746000035,7.241417894000051],[3.824983001000021,7.241410599000062],[3.82504764600003,7.241373723000038],[3.825087584000073,7.241341669000064],[3.825260090000029,7.24120321700002],[3.825305911000044,7.241097836000051]]]}},
{"type":"Feature","properties":{"OBJECTID_1":22,"OBJECTID":22.0,"SHAPE_Leng":1119.1466393600001,"walk":1.0,"drive":1.0,"Shape_Le_1":0.01013067925},"geometry":{"type":"MultiLineString","coordinates":[[[3.817600454000058,7.23890863400004],[3.818040393000047,7.23940944900005],[3.818795669000053,7.240241028000071],[3.819200848000037,7.240668075000031],[3.819912252000051,7.241378478000058],[3.82056521100003,7.241993107000042],[3.821390588000042,7.242719855000075],[3.822116605000076,7.243312524000032],[3.822731944000054,7.243794828000034],[3.823132823000037,7.244093965000047],[3.823613951000027,7.244439562000025],[3.823978122000028,7.244692577000023],[3.82457327000003,7.245095602000049],[3.825131909000049,7.245470504000025],[3.825215299000035,7.245531977000041]]]}},
{"type":"Feature","properties":{"OBJECTID_1":23,"OBJECTID":23.0,"SHAPE_Leng":448.36409849299997,"walk":1.0,"drive":1.0,"Shape_Le_1":0.00405919989},"geometry":{"type":"MultiLineString","coordinates":[[[3.822033695000073,7.243050049000033],[3.82277745600004,7.243646562000038],[3.823645536000072,7.244280261000029],[3.824666006000029,7.244959104000031],[3.82533640500003,7.245405407000021]]]}},
{"type":"Feature","properties":{"OBJECTID_1":24,"OBJECTID":24.0,"SHAPE_Leng":683.49183291999998,"walk":1.0,"drive":1.0,"Shape_Le_1":0.00619002015},"geometry":{"type":"MultiLineString","coordinates":[[[3.822033695000073,7.243050049000033],[3.822371829000076,7.243244177000065],[3.822717332000025,7.243468508000035],[3.823031416000049,7.24367829800002],[3.823358062000068,7.243811245000074],[3.82366012500006,7.243868134000024],[3.823801848000073,7.24386406800005],[3.824274511000056,7.243850509000026],[3.825002448000021,7.243783509000025],[3.825549561000059,7.243733777000045],[3.826107382000032,7.243686656000023],[3.826616558000069,7.243641697000044],[3.82704106400007,7.24360056200004],[3.827367930000037,7.243525002000069],[3.827699579000068,7.243378417000031],[3.827919024000039,7.243239215000074]]]}},
{"type":"Feature","properties":{"OBJECTID_1":25,"OBJECTID":25.0,"SHAPE_Leng":382.36093070300001,"walk":1.0,"drive":1.0,"Shape_Le_1":0.0034607632},"geometry":{"type":"MultiLineString","coordinates":[[[3.817736088000061,7.238826330000052],[3.817979861000026,7.239120250000042],[3.818563825000069,7.239751562000038],[3.819105781000076,7.240343491000033],[3.819761208000045,7.240999231000046],[3.820136311000056,7.241313313000035]]]}},
{"type":"Feature","properties":{"OBJECTID_1":26,"OBJECTID":26.0,"SHAPE_Leng":120.201195535,"walk":1.0,"drive":1.0,"Shape_Le_1":0.00108841373},"geometry":{"type":"MultiLineString","coordinates":[[[3.827626860000066,7.240466274000028],[3.827665444000047,7.240499941000053],[3.827702411000075,7.240575930000034],[3.827752127000053,7.240635429000065],[3.827815520000058,7.240704236000056],[3.827862744000072,7.240724089000025],[3.827899936000051,7.240737236000029],[3.828172794000068,7.241004496000073],[3.828393537000068,7.24122071100004]]]}},
{"type":"Feature","properties":{"OBJECTID_1":27,"OBJECTID":27.0,"SHAPE_Leng":30.990144945200001,"walk":1.0,"drive":1.0,"Shape_Le_1":0.0002970815},"geometry":{"type":"MultiLineString","coordinates":[[[3.826797375000069,7.241101272000037],[3.826737898000033,7.241063177000058],[3.826683783000021,7.241020293000076],[3.826665837000064,7.24097236800003],[3.826683783000021,7.241020293000076],[3.826637726000058,7.24105045400006]]]}},
{"type":"Feature","properties":{"OBJECTID_1":28,"OBJECTID":28.0,"SHAPE_Leng":82.328731775899996,"walk":1.0,"drive":1.0,"Shape_Le_1":0.00074504709},"geometry":{"type":"MultiLineString","coordinates":[[[3.826665837000064,7.24097236800003],[3.826662184000043,7.240920391000031],[3.826658530000032,7.240868415000023],[3.826514276000069,7.240702411000029],[3.826385106000032,7.24055579700007],[3.826235871000051,7.240386723000029]]]}},
{"type":"Feature","properties":{"OBJECTID_1":29,"OBJECTID":29.0,"SHAPE_Leng":38.41446641,"walk":1.0,"drive":1.0,"Shape_Le_1":0.00035980268},"geometry":{"type":"MultiLineString","coordinates":[[[3.823375311000063,7.239481195000053],[3.823361523000074,7.239523633000033],[3.823388980000061,7.239564742000027],[3.823366885000041,7.239617567000039],[3.823305837000021,7.239652378000073],[3.823220669000023,7.239670057000069],[3.823173502000031,7.239650070000039]]]}},
{"type":"Feature","properties":{"OBJECTID_1":30,"OBJECTID":30.0,"SHAPE_Leng":171.33727591900001,"walk":1.0,"drive":1.0,"Shape_Le_1":0.00155053977},"geometry":{"type":"MultiLineString","coordinates":[[[3.822028351000029,7.237365674000046],[3.822036099000059,7.237211114000047],[3.822107642000049,7.237017140000034],[3.822114442000043,7.236801744000047],[3.822257762000049,7.23654302500006],[3.822408323000047,7.23631301100005],[3.822810903000061,7.236297925000031]]]}},
{"type":"Feature","properties":{"OBJECTID_1":31,"OBJECTID":32.0,"SHAPE_Leng":55.182834957099999,"walk":1.0,"drive":1.0,"Shape_Le_1":0.00048768493},"geometry":{"type":"MultiLineString","coordinates":[[[3.826235871000051,7.240386723000029],[3.826134825000054,7.240286727000068],[3.826081528000032,7.240234653000073],[3.826003986000046,7.240160367000044],[3.82595146400007,7.24009520900006],[3.826009635000048,7.240040381000028]]]}},
{"type":"Feature","properties":{"OBJECTID_1":32,"OBJECTID":33.0,"SHAPE_Leng":20.5708094236,"walk":1.0,"drive":1.0,"Shape_Le_1":0.00018632133},"geometry":{"type":"MultiLineString","coordinates":[[[3.820673984000052,7.239065207000067],[3.820487735000029,7.239070398000024]]]}},
{"type":"Feature","properties":{"OBJECTID_1":33,"OBJECTID":34.0,"SHAPE_Leng":15.104279937799999,"walk":1.0,"drive":1.0,"Shape_Le_1":0.00013775476},"geometry":{"type":"MultiLineString","coordinates":[[[3.826662184000043,7.240920391000031],[3.826722620000055,7.240858467000066],[3.826769607000074,7.240838061000034]]]}}
]
}
